{"type":"FeatureCollection","features":[{"type":"Feature","properties":{"navn":"Interesseområde"},"geometry":{"type":"Polygon","coordinates":[[[11.028611,59.943215],[11.018605,59.946755],[11.014613,59.948958],[11.008297,59.955151],[11.006635,59.959767],[11.007376,59.964569],[11.010806,59.968014],[11.016518,59.970483],[11.019984,59.971253],[11.025433,59.971736],[11.032874,59.971114],[11.039273,59.969113],[11.043657,59.966036],[11.046527,59.961246],[11.051438,59.959189],[11.064126,59.955922],[11.072209,59.95264],[11.075637,59.950562],[11.07769,59.948522],[11.083902,59.945466],[11.08838,59.946627],[11.095128,59.94732],[11.1066,59.94754],[11.114551,59.947044],[11.121159,59.949094],[11.12598,59.949639],[11.131241,59.949512],[11.134741,59.948983],[11.141414,59.947045],[11.14739,59.943698],[11.149869,59.940486],[11.15031,59.936263],[11.14889,59.933486],[11.146412,59.931454],[11.147337,59.929687],[11.152629,59.932299],[11.154774,59.93476],[11.158231,59.937439],[11.161361,59.941127],[11.163949,59.949676],[11.164181,59.952924],[11.165292,59.954809],[11.171085,59.960298],[11.173524,59.965737],[11.17668,59.969272],[11.182131,59.974708],[11.188527,59.979455],[11.189952,59.984755],[11.191324,59.986896],[11.19744,59.992202],[11.200413,59.994019],[11.21081,59.997954],[11.220437,59.99988],[11.227881,60.000582],[11.24293,60.000696],[11.252901,60.000352],[11.260244,59.999458],[11.26845,59.999554],[11.273876,59.998997],[11.280447,59.996998],[11.282967,59.995578],[11.285549,59.993123],[11.286639,59.989381],[11.284787,59.985715],[11.281528,59.983302],[11.275424,59.981079],[11.268123,59.980009],[11.260306,59.979773],[11.242283,59.981164],[11.230736,59.981168],[11.228531,59.98043],[11.225212,59.97293],[11.221632,59.969196],[11.21585,59.965021],[11.212206,59.961505],[11.20971,59.958633],[11.207377,59.953524],[11.20255,59.948551],[11.200354,59.939491],[11.198283,59.935391],[11.19393,59.929875],[11.186202,59.922277],[11.181211,59.918952],[11.176592,59.916955],[11.182932,59.915558],[11.18546,59.914478],[11.188964,59.911918],[11.191417,59.907241],[11.191701,59.904983],[11.193815,59.902506],[11.194548,59.897885],[11.195646,59.895917],[11.201593,59.892507],[11.204578,59.890195],[11.207002,59.886737],[11.207062,59.884671],[11.208628,59.883678],[11.213159,59.881973],[11.216124,59.87984],[11.217838,59.877984],[11.218716,59.874458],[11.220724,59.87352],[11.225249,59.872355],[11.23015,59.869862],[11.232381,59.867681],[11.236322,59.865454],[11.238617,59.862332],[11.243528,59.858538],[11.24747,59.856299],[11.249901,59.853032],[11.249668,59.849529],[11.248542,59.847862],[11.244483,59.845016],[11.23926,59.843339],[11.238515,59.840243],[11.244061,59.836953],[11.246305,59.834189],[11.251791,59.832062],[11.255159,59.829344],[11.256436,59.826136],[11.255401,59.823046],[11.259017,59.820105],[11.260951,59.81653],[11.261335,59.812225],[11.260437,59.809195],[11.263013,59.806615],[11.264679,59.801922],[11.263545,59.798655],[11.26014,59.794373],[11.259277,59.788737],[11.257074,59.785926],[11.256058,59.78329],[11.260697,59.780895],[11.262306,59.779393],[11.263321,59.777763],[11.264103,59.77339],[11.268421,59.770162],[11.270124,59.765466],[11.26908,59.76217],[11.272563,59.755873],[11.277723,59.754021],[11.281669,59.751733],[11.28508,59.748824],[11.285913,59.747179],[11.28611,59.745396],[11.284651,59.74217],[11.28676,59.739189],[11.286896,59.735728],[11.285372,59.733054],[11.280464,59.728397],[11.27667,59.726376],[11.27406,59.723981],[11.268171,59.720311],[11.272377,59.717827],[11.274005,59.716214],[11.274958,59.714468],[11.274803,59.711011],[11.272381,59.708055],[11.270429,59.706788],[11.265144,59.704811],[11.261897,59.704207],[11.262784,59.701386],[11.261491,59.697007],[11.265269,59.689994],[11.265901,59.686562],[11.269384,59.682912],[11.270536,59.680507],[11.270918,59.67408],[11.270188,59.672528],[11.275587,59.670315],[11.279255,59.667211],[11.280255,59.665557],[11.281148,59.659684],[11.279688,59.655771],[11.281397,59.653234],[11.281327,59.648042],[11.279755,59.645802],[11.277677,59.644126],[11.272016,59.641754],[11.264942,59.640748],[11.257348,59.641036],[11.251865,59.640282],[11.242404,59.639808],[11.236806,59.640424],[11.233154,59.641206],[11.229937,59.642379],[11.225378,59.645024],[11.222803,59.648228],[11.219305,59.650349],[11.216117,59.649929],[11.208344,59.64804],[11.190745,59.646605],[11.184653,59.643461],[11.182715,59.641932],[11.187571,59.637791],[11.189901,59.634803],[11.193384,59.62763],[11.192855,59.624004],[11.18953,59.620781],[11.183999,59.618465],[11.177846,59.617452],[11.171386,59.617627],[11.168311,59.618158],[11.162182,59.620037],[11.158933,59.617255],[11.156338,59.615788],[11.151677,59.614203],[11.146447,59.613382],[11.138989,59.613532],[11.132212,59.615116],[11.127147,59.617893],[11.124542,59.62151],[11.124857,59.625219],[11.127593,59.628657],[11.13062,59.635221],[11.136902,59.641738],[11.13712,59.643402],[11.133724,59.648779],[11.134118,59.651965],[11.135152,59.653858],[11.139503,59.657084],[11.145479,59.658977],[11.152404,59.659544],[11.159259,59.658686],[11.162213,59.660719],[11.165887,59.662446],[11.173205,59.664993],[11.177067,59.665581],[11.190534,59.666148],[11.198688,59.667356],[11.202809,59.668331],[11.203693,59.670753],[11.200141,59.675153],[11.199324,59.678306],[11.197279,59.680758],[11.196709,59.682326],[11.197071,59.684975],[11.195468,59.688465],[11.195765,59.690305],[11.198464,59.69457],[11.198259,59.698619],[11.195062,59.703677],[11.194473,59.707105],[11.189362,59.709781],[11.187012,59.7129],[11.186847,59.715735],[11.188222,59.718321],[11.1907,59.720399],[11.193099,59.721645],[11.190017,59.724802],[11.189241,59.726396],[11.189411,59.72952],[11.186283,59.733435],[11.185605,59.736047],[11.181758,59.737976],[11.180015,59.739508],[11.178458,59.742935],[11.179005,59.745253],[11.175735,59.744094],[11.167944,59.742808],[11.164596,59.742729],[11.158307,59.743473],[11.155467,59.744264],[11.150865,59.746553],[11.148982,59.748269],[11.147544,59.75121],[11.148261,59.754795],[11.150832,59.75733],[11.151479,59.76082],[11.152781,59.762745],[11.15638,59.76543],[11.15884,59.766484],[11.164776,59.767902],[11.166648,59.769442],[11.167777,59.77191],[11.170854,59.775625],[11.172771,59.77729],[11.176804,59.779229],[11.176971,59.784735],[11.180125,59.789601],[11.183116,59.791798],[11.18149,59.797284],[11.182523,59.799726],[11.180234,59.803167],[11.180505,59.806773],[11.178866,59.808286],[11.174594,59.810577],[11.17301,59.812144],[11.171723,59.815322],[11.17004,59.81746],[11.163373,59.820915],[11.160562,59.823527],[11.152644,59.828629],[11.141564,59.831327],[11.128552,59.835966],[11.118794,59.841385],[11.108383,59.844323],[11.105585,59.845617],[11.100574,59.849174],[11.09751,59.853284],[11.090305,59.858978],[11.088827,59.861894],[11.085422,59.863624],[11.08353,59.865254],[11.082342,59.867082],[11.08099,59.871866],[11.081785,59.874548],[11.084406,59.877618],[11.087301,59.879301],[11.090541,59.880477],[11.096993,59.888826],[11.098195,59.891827],[11.08787,59.902139],[11.084893,59.904389],[11.083267,59.906262],[11.081166,59.910965],[11.07808,59.914013],[11.07539,59.915519],[11.072503,59.918253],[11.069865,59.919926],[11.068192,59.921695],[11.067178,59.923988],[11.06241,59.926539],[11.057277,59.930771],[11.047925,59.935361],[11.044693,59.938076],[11.040098,59.940275],[11.028611,59.943215]]]}}]}