{"type":"FeatureCollection","features":[{"type":"Feature","properties":{"Led":2,"Hastighet":"5 knop","Info":"Kjør på østsiden av bøyene"},"geometry":{"type":"LineString","coordinates":[[11.204584,59.859609],[11.20293,59.860065],[11.201251,59.860981],[11.200427,59.861677],[11.199262,59.862852],[11.19842,59.863461],[11.198211,59.864535],[11.197983,59.865032],[11.197236,59.865558],[11.19495,59.865765],[11.193687,59.865801],[11.192369,59.865561],[11.191466,59.865448],[11.189784,59.864637],[11.189369,59.86451],[11.187957,59.864339],[11.186469,59.864339],[11.185704,59.864519],[11.184814,59.86504],[11.184162,59.865482],[11.183595,59.866185],[11.183323,59.867055],[11.182891,59.868079],[11.183842,59.869273],[11.184669,59.870045],[11.184778,59.870596],[11.184688,59.871874],[11.184254,59.872164],[11.183853,59.872671],[11.183767,59.872668]]}},{"type":"Feature","properties":{"Led":2,"Hastighet":"5 knop","Info":"Kjør på østsiden av bøyene"},"geometry":{"type":"LineString","coordinates":[[11.183782,59.872784],[11.181878,59.87316],[11.180152,59.873729],[11.177354,59.874656],[11.176032,59.87669],[11.175388,59.877305],[11.17104,59.879007],[11.167879,59.880095],[11.166654,59.880535],[11.161509,59.881191],[11.159163,59.881166]]}},{"type":"Feature","properties":{"Led":2,"Hastighet":"5 knop","Info":"Kjør på østsiden av bøyene"},"geometry":{"type":"LineString","coordinates":[[11.184477,59.872473],[11.18485,59.873707],[11.186209,59.874841],[11.188838,59.875392],[11.189489,59.875454],[11.190273,59.87611],[11.190183,59.876899],[11.189712,59.87726],[11.187874,59.878056],[11.185738,59.8787],[11.184535,59.878953],[11.183664,59.879806],[11.184117,59.880596],[11.18405,59.881933],[11.182079,59.883128],[11.180874,59.883396],[11.180823,59.884589]]}},{"type":"Feature","properties":{"Led":1,"Hastighet":"5 knop","Info":"Kjør på østsiden av bøyene"},"geometry":{"type":"LineString","coordinates":[[11.162483,59.838995],[11.15803,59.841399],[11.155488,59.844089],[11.153287,59.847537],[11.151334,59.851309],[11.150508,59.852768],[11.149864,59.854621],[11.148382,59.856794],[11.14682,59.859657],[11.145482,59.862065],[11.144848,59.863831],[11.144947,59.865202],[11.145786,59.86586],[11.14769,59.867184],[11.15056,59.868346],[11.15323,59.869502],[11.155176,59.870581],[11.156682,59.87198],[11.158035,59.873272],[11.158032,59.8733]]}},{"type":"Feature","properties":{"Led":1,"Hastighet":"5 knop","Info":"Kjør på østsiden av bøyene"},"geometry":{"type":"LineString","coordinates":[[11.160847,59.837306],[11.154554,59.838548],[11.152948,59.838832],[11.149165,59.840132],[11.14639,59.841375],[11.1456,59.841769],[11.143278,59.842306],[11.141304,59.843544],[11.134368,59.847097],[11.132202,59.848502],[11.130666,59.849407],[11.12696,59.850277],[11.125226,59.850672],[11.123243,59.851233],[11.120892,59.852013],[11.11851,59.853296],[11.117104,59.854061],[11.115779,59.856829],[11.11347,59.859453],[11.111991,59.861079],[11.110174,59.862422],[11.107634,59.86334],[11.107592,59.865167],[11.107738,59.865877],[11.106615,59.866909],[11.105943,59.868487],[11.105866,59.869147],[11.104884,59.869464],[11.103798,59.869691]]}},{"type":"Feature","properties":{"Led":1,"Hastighet":"5 knop","Info":"Kjør på østsiden av bøyene"},"geometry":{"type":"LineString","coordinates":[[11.110585,59.901017],[11.110225,59.901884],[11.110165,59.903869],[11.108639,59.905149],[11.107103,59.906025],[11.106188,59.906746],[11.105685,59.907365],[11.104317,59.907785],[11.102648,59.90906],[11.10113,59.910757],[11.100194,59.912385],[11.099291,59.913971],[11.098975,59.914465],[11.098018,59.915531],[11.096799,59.917122],[11.095995,59.91884],[11.096723,59.92069],[11.096611,59.92286],[11.096028,59.923923],[11.094731,59.925439],[11.093996,59.925835],[11.092479,59.926783],[11.089388,59.927699],[11.086806,59.928674],[11.084139,59.929645]]}},{"type":"Feature","properties":{"Led":4},"geometry":{"type":"LineString","coordinates":[[11.097021,59.920108],[11.10653,59.919469],[11.110576,59.919444],[11.113384,59.919225],[11.114807,59.91931],[11.118448,59.918827],[11.120931,59.91844],[11.123143,59.918404],[11.126805,59.917979],[11.130091,59.917831],[11.133562,59.918062]]}},{"type":"Feature","properties":{"Led":3,"Hastighet":"15 knop","Info":"Kjør på østsiden av bøyene"},"geometry":{"type":"LineString","coordinates":[[11.20426,59.859394],[11.201974,59.859042],[11.198885,59.858824],[11.196361,59.858944],[11.194351,59.860185],[11.193283,59.861518],[11.190401,59.861729],[11.188032,59.861615],[11.185275,59.861378],[11.181411,59.861524],[11.177471,59.862497],[11.174312,59.863041],[11.172735,59.863059],[11.168842,59.862974],[11.166037,59.862993],[11.163304,59.863973],[11.162537,59.86545],[11.162519,59.866116],[11.162773,59.868181],[11.162611,59.870193],[11.161489,59.871682],[11.160615,59.872196],[11.159092,59.873478],[11.157341,59.873888],[11.155483,59.874423],[11.154201,59.87457],[11.151604,59.874844],[11.148582,59.875299],[11.145207,59.875643],[11.143519,59.87645],[11.141757,59.877421],[11.140597,59.878253],[11.139648,59.879801],[11.138776,59.881305],[11.13862,59.882655],[11.13834,59.884434],[11.13853,59.885637],[11.137776,59.887071],[11.137575,59.888493],[11.136738,59.889537],[11.134993,59.891928],[11.134214,59.892476],[11.132369,59.893518],[11.132221,59.893846],[11.132138,59.894719],[11.132754,59.896202],[11.132305,59.8977],[11.132279,59.89839],[11.130901,59.899354],[11.130042,59.900277],[11.128876,59.901155],[11.128313,59.901894],[11.127752,59.903085],[11.127558,59.904277],[11.127459,59.905444],[11.1275,59.906661],[11.127948,59.907854],[11.12928,59.909017],[11.130846,59.910381],[11.132696,59.91167]]}}]}