{"type":"FeatureCollection","features":[{"type":"Feature","properties":{"id":1,"tittel":"Tone Berit","beskrivelse":"Her ligger Tone Berit og hviler det meste av sommeren","bilde":"data/poi-bilder/1.jpg"},"geometry":{"type":"Point","coordinates":[11.177822,59.828322]}},{"type":"Feature","properties":{"id":3,"tittel":"Munkebekken 182","beskrivelse":""},"geometry":{"type":"Point","coordinates":[10.91609,59.929597]}},{"type":"Feature","properties":{"id":5,"tittel":"Ankringsplass","beskrivelse":"Fin Ankringsplass i le for vind men med fin kveldssol"},"geometry":{"type":"Point","coordinates":[11.242451,59.81193]}},{"type":"Feature","properties":{"id":6,"tittel":"Mørk Brygge","beskrivelse":"https://www.visitoestfold.com/listing/bobilparkering-og-teltplass-m%C3%B8rk-brygge-spydeberg/848297306/\n\nVelkommen til naturskjønne omgivelser ved Mørk brygge i Spydeberg.\n\nHer tilbys en hyggelig og rolig overnattingsplass for både bobilgjester og teltcampere, med nærhet til vannet og gode muligheter for friluftsliv og rekreasjon.\n\nOvernatting\n\n5 bobilplasser med strøm\n2 teltplasser\nFasiliteter\n\nTilgang til WC\nGrillplass\nBadeplass\nGode fiskemuligheter\nAktiviteter\n\nUtleie av kajakk\nUtleie av SUP-board (stand up paddleboard)\nServering og kiosk\n\nDet er mulig å kjøpe is og brus på området. Betaling skjer enkelt med Vipps.\n\nOpplevelser ved vannet\n\nMørk brygge er et flott utgangspunkt for avslapning, bading, fisking og padling i naturskjønne omgivelser. Området passer både for familier, friluftsinteresserte og reisende som ønsker en rolig overnatting nær naturen.\n\nMørk brygge, Spydeberg tilbyr en enkel og hyggelig campingopplevelse med tilgang til nødvendige fasiliteter og aktiviteter for store og små.","bilde":"data/poi-bilder/6.jpg"},"geometry":{"type":"Point","coordinates":[11.221382,59.67033]}},{"type":"Feature","properties":{"id":7,"tittel":"Solbergfoss badeplass","beskrivelse":"Her bader du altså i Glomma, hvor det alltid kan garanteres et friskt og nedkjølende bad i sommervarmen! Her finner du en stor gresslette med god plass til lek og moro. På vannet ligger ei flytebrygge, og ved parkeringsplassen er det toaletter tilgjengelig for besøkende.  \n\nDette er virkelig en perle, så her det bare å pakke piknikpleddet og kjølebagen!  \n\nTips: Solbergfoss kraftverk er et verdifullt kulturminne fra norsk kraftproduksjon. Benytt muligheten til å ta en nøyere titt på dette flotte vannkraftverket!\n\nhttps://www.io.kommune.no/tjenester/kultur-idrett-og-fritid/idrett-og-fysisk-aktivitet/friluftsliv/badeplasser/solbergfoss/","bilde":"data/poi-bilder/7.jpg"},"geometry":{"type":"Point","coordinates":[11.162515,59.636608]}},{"type":"Feature","properties":{"id":8,"tittel":"Sandstangen","beskrivelse":"Her er det mange fine steder å slå seg ned i sandstranda. Området er tilrettelagt for funksjonshemmede, og det er toaletter tilgjengelig for besøkende. Det er også brygge og mulighet for å sette ut båt.\n\nDet er mange sitteplasser, og en pent opparbeidet plen i tilknytning til den ene sandstranda som fungerer ypperlig til piknik, ballspill eller annen moro.  \n\nHer har du sola hele dagen, så det er bare å ta seg til rette! Og du? Er det overskya og litt grått, så kan du faktisk også booke deg inn på kommunens vedfyrte badstue (med unntak av i juli, da satser vi på at sola stiller opp de fleste sommerdager).  \n\nTips: Ta med fiskestanga, her er det svært gode muligheter for napp!\n\nhttps://www.io.kommune.no/tjenester/kultur-idrett-og-fritid/idrett-og-fysisk-aktivitet/friluftsliv/badeplasser/sandstangen/","bilde":"data/poi-bilder/8.jpg"},"geometry":{"type":"Point","coordinates":[11.249643,59.66871]}},{"type":"Feature","properties":{"id":9,"tittel":"Utoverhengende tre","beskrivelse":"Et fint utoverhengende tre å binde båten i.","bilde":"data/poi-bilder/9.jpg"},"geometry":{"type":"Point","coordinates":[11.165017,59.890401]}},{"type":"Feature","properties":{"id":10,"tittel":"Nebdalen","beskrivelse":"https://maps.app.goo.gl/D8RUuDBrbahZ4Tw88?g_st=ic"},"geometry":{"type":"Point","coordinates":[11.138561,59.890514]}},{"type":"Feature","properties":{"id":11,"tittel":"Mariaholm","beskrivelse":"Mariaholm kurs- og konferansesenter er et skole- og konferansesenter ved Øyeren i Indre Østfold som eies og drives av Oslo katolske bispedømme (OKB). Adressen til senteret er Stegenveien 1143, 1821 Spydeberg.\n\nhttps://www.katolsk.no/organisasjon/norge/mariaholm","bilde":"data/poi-bilder/11.jpg"},"geometry":{"type":"Point","coordinates":[11.218652,59.675915]}},{"type":"Feature","properties":{"id":12,"tittel":"Tom og Sonja sin hytte","beskrivelse":""},"geometry":{"type":"Point","coordinates":[11.252799,59.716746]}}]}