{"type":"FeatureCollection","features":[{"type":"Feature","properties":{},"geometry":{"type":"LineString","coordinates":[[11.01979,59.94582],[11.01982,59.94587],[11.01991,59.94588],[11.01998,59.94592],[11.02007,59.94605],[11.0202,59.94629],[11.02023,59.9464]]}},{"type":"Feature","properties":{},"geometry":{"type":"LineString","coordinates":[[11.02023,59.9464],[11.02029,59.94664],[11.02045,59.94754]]}},{"type":"Feature","properties":{},"geometry":{"type":"LineString","coordinates":[[11.02045,59.94754],[11.02059,59.94823]]}},{"type":"Feature","properties":{},"geometry":{"type":"LineString","coordinates":[[11.02059,59.94823],[11.02066,59.94855]]}},{"type":"Feature","properties":{},"geometry":{"type":"LineString","coordinates":[[11.02066,59.94855],[11.02072,59.9489],[11.02076,59.94923],[11.02077,59.9498],[11.02076,59.95003],[11.02072,59.95012],[11.0206,59.95021],[11.02053,59.95024],[11.02057,59.95028]]}}]}