{"type":"FeatureCollection","features":[{"type":"Feature","properties":{"name":"Lund","stoptypename":"Bus"},"geometry":{"type":"Point","coordinates":[11.28125,59.73832]}},{"type":"Feature","properties":{"name":"Sæter","stoptypename":"Bus"},"geometry":{"type":"Point","coordinates":[11.26007,59.7578]}},{"type":"Feature","properties":{"name":"Skårudtoppen","stoptypename":"Bus"},"geometry":{"type":"Point","coordinates":[11.13831,59.63752]}},{"type":"Feature","properties":{"name":"Holm","stoptypename":"Bus"},"geometry":{"type":"Point","coordinates":[11.14167,59.64349]}},{"type":"Feature","properties":{"name":"Solberg","stoptypename":"Bus"},"geometry":{"type":"Point","coordinates":[11.1446,59.6537]}},{"type":"Feature","properties":{"name":"N. Mork","stoptypename":"Bus"},"geometry":{"type":"Point","coordinates":[11.21152,59.66891]}},{"type":"Feature","properties":{"name":"Mariaholm","stoptypename":"Bus"},"geometry":{"type":"Point","coordinates":[11.21119,59.67395]}},{"type":"Feature","properties":{"name":"Kjærstad","stoptypename":"Bus"},"geometry":{"type":"Point","coordinates":[11.2038,59.68295]}},{"type":"Feature","properties":{"name":"Tømt","stoptypename":"Bus"},"geometry":{"type":"Point","coordinates":[11.15764,59.62427]}},{"type":"Feature","properties":{"name":"Solbergfoss","stoptypename":"Bus"},"geometry":{"type":"Point","coordinates":[11.15906,59.63622]}},{"type":"Feature","properties":{"name":"Tyrihjellåsen","stoptypename":"Bus"},"geometry":{"type":"Point","coordinates":[11.16287,59.63446]}},{"type":"Feature","properties":{"name":"Nerdrum stasjon","stoptypename":"Bus"},"geometry":{"type":"Point","coordinates":[11.14074,59.92311]}},{"type":"Feature","properties":{"name":"Sørumsand stasjon","stoptypename":"Bus"},"geometry":{"type":"Point","coordinates":[11.24179,59.98606]}},{"type":"Feature","properties":{"name":"Bingsfoss ungdomsskole","stoptypename":"Bus"},"geometry":{"type":"Point","coordinates":[11.25088,59.98745]}},{"type":"Feature","properties":{"name":"Festiviteten","stoptypename":"Bus"},"geometry":{"type":"Point","coordinates":[11.24894,59.98685]}},{"type":"Feature","properties":{"name":"Heggedalsveien","stoptypename":"Bus"},"geometry":{"type":"Point","coordinates":[11.25702,59.98684]}},{"type":"Feature","properties":{"name":"Nedre Valsringen","stoptypename":"Bus"},"geometry":{"type":"Point","coordinates":[11.26403,59.99317]}},{"type":"Feature","properties":{"name":"Øvre Valsringen","stoptypename":"Bus"},"geometry":{"type":"Point","coordinates":[11.26334,59.99732]}},{"type":"Feature","properties":{"name":"Svendsrudveien","stoptypename":"Bus"},"geometry":{"type":"Point","coordinates":[11.21289,59.96493]}},{"type":"Feature","properties":{"name":"Fossum stasjon","stoptypename":"Bus"},"geometry":{"type":"Point","coordinates":[11.28428,59.98714]}},{"type":"Feature","properties":{"name":"Monsrudveien","stoptypename":"Bus"},"geometry":{"type":"Point","coordinates":[11.2688,59.98296]}},{"type":"Feature","properties":{"name":"Nordsjø","stoptypename":"Bus"},"geometry":{"type":"Point","coordinates":[11.26292,59.98179]}},{"type":"Feature","properties":{"name":"Lystad","stoptypename":"Bus"},"geometry":{"type":"Point","coordinates":[11.21844,59.96804]}},{"type":"Feature","properties":{"name":"Tyriveien","stoptypename":"Bus"},"geometry":{"type":"Point","coordinates":[11.15723,59.9364]}},{"type":"Feature","properties":{"name":"Østersund skole","stoptypename":"Bus"},"geometry":{"type":"Point","coordinates":[11.16881,59.92035]}},{"type":"Feature","properties":{"name":"Fetsund stasjon","stoptypename":"Bus"},"geometry":{"type":"Point","coordinates":[11.16214,59.92716]}},{"type":"Feature","properties":{"name":"Herredshuset","stoptypename":"Bus"},"geometry":{"type":"Point","coordinates":[11.15509,59.92497]}},{"type":"Feature","properties":{"name":"Hovinhøgda","stoptypename":"Bus"},"geometry":{"type":"Point","coordinates":[11.14572,59.93044]}},{"type":"Feature","properties":{"name":"Hovinbakken","stoptypename":"Bus"},"geometry":{"type":"Point","coordinates":[11.13983,59.93183]}},{"type":"Feature","properties":{"name":"Gamle Fet rådhus","stoptypename":"Bus"},"geometry":{"type":"Point","coordinates":[11.16909,59.92244]}},{"type":"Feature","properties":{"name":"Sundet","stoptypename":"Bus"},"geometry":{"type":"Point","coordinates":[11.17029,59.92292]}},{"type":"Feature","properties":{"name":"Holterveien","stoptypename":"Bus"},"geometry":{"type":"Point","coordinates":[11.19666,59.94582]}},{"type":"Feature","properties":{"name":"Løken terrasse","stoptypename":"Bus"},"geometry":{"type":"Point","coordinates":[11.18183,59.91963]}},{"type":"Feature","properties":{"name":"Olderveien","stoptypename":"Bus"},"geometry":{"type":"Point","coordinates":[11.20412,59.95946]}},{"type":"Feature","properties":{"name":"Løken","stoptypename":"Bus"},"geometry":{"type":"Point","coordinates":[11.17722,59.91615]}},{"type":"Feature","properties":{"name":"Velveien","stoptypename":"Bus"},"geometry":{"type":"Point","coordinates":[11.20317,59.95433]}},{"type":"Feature","properties":{"name":"Riddersand skole","stoptypename":"Bus"},"geometry":{"type":"Point","coordinates":[11.17104,59.91608]}},{"type":"Feature","properties":{"name":"Ekebergtoppen","stoptypename":"Bus"},"geometry":{"type":"Point","coordinates":[11.19245,59.93603]}},{"type":"Feature","properties":{"name":"Fråstad","stoptypename":"Bus"},"geometry":{"type":"Point","coordinates":[11.18851,59.93653]}},{"type":"Feature","properties":{"name":"Fallaveien","stoptypename":"Bus"},"geometry":{"type":"Point","coordinates":[11.1941,59.93581]}},{"type":"Feature","properties":{"name":"Guttersrud","stoptypename":"Bus"},"geometry":{"type":"Point","coordinates":[11.20796,59.96294]}},{"type":"Feature","properties":{"name":"Dammerud","stoptypename":"Bus"},"geometry":{"type":"Point","coordinates":[11.18452,59.93121]}},{"type":"Feature","properties":{"name":"Sydoverveien","stoptypename":"Bus"},"geometry":{"type":"Point","coordinates":[11.18233,59.93133]}},{"type":"Feature","properties":{"name":"Kringenveien","stoptypename":"Bus"},"geometry":{"type":"Point","coordinates":[11.17659,59.92256]}},{"type":"Feature","properties":{"name":"Svarterud","stoptypename":"Bus"},"geometry":{"type":"Point","coordinates":[11.25673,59.79871]}},{"type":"Feature","properties":{"name":"Enger","stoptypename":"Bus"},"geometry":{"type":"Point","coordinates":[11.25781,59.80357]}},{"type":"Feature","properties":{"name":"Ersrud","stoptypename":"Bus"},"geometry":{"type":"Point","coordinates":[11.25336,59.80635]}},{"type":"Feature","properties":{"name":"Svindal","stoptypename":"Bus"},"geometry":{"type":"Point","coordinates":[11.20638,59.88552]}},{"type":"Feature","properties":{"name":"Gaukerud","stoptypename":"Bus"},"geometry":{"type":"Point","coordinates":[11.20247,59.88909]}},{"type":"Feature","properties":{"name":"Åsveien","stoptypename":"Bus"},"geometry":{"type":"Point","coordinates":[11.19399,59.89633]}},{"type":"Feature","properties":{"name":"Råmyra","stoptypename":"Bus"},"geometry":{"type":"Point","coordinates":[11.19003,59.89847]}},{"type":"Feature","properties":{"name":"Holtbakken","stoptypename":"Bus"},"geometry":{"type":"Point","coordinates":[11.18228,59.90361]}},{"type":"Feature","properties":{"name":"Skjønhaug i Fet","stoptypename":"Bus"},"geometry":{"type":"Point","coordinates":[11.18226,59.90832]}},{"type":"Feature","properties":{"name":"Bjerkeflåtten","stoptypename":"Bus"},"geometry":{"type":"Point","coordinates":[11.24396,59.83361]}},{"type":"Feature","properties":{"name":"Østanesveien","stoptypename":"Bus"},"geometry":{"type":"Point","coordinates":[11.24219,59.84643]}},{"type":"Feature","properties":{"name":"Sand","stoptypename":"Bus"},"geometry":{"type":"Point","coordinates":[11.23537,59.85565]}},{"type":"Feature","properties":{"name":"Gansvika","stoptypename":"Bus"},"geometry":{"type":"Point","coordinates":[11.22581,59.86251]}},{"type":"Feature","properties":{"name":"Bytoppen","stoptypename":"Bus"},"geometry":{"type":"Point","coordinates":[11.22275,59.87213]}},{"type":"Feature","properties":{"name":"Tuen","stoptypename":"Bus"},"geometry":{"type":"Point","coordinates":[11.10976,59.94616]}},{"type":"Feature","properties":{"name":"Jenseberget","stoptypename":"Bus","zone_name":"2Ø"},"geometry":{"type":"Point","coordinates":[11.02428,59.95681]}},{"type":"Feature","properties":{"name":"Jonas Lies gate","stoptypename":"Bus","zone_name":"2Ø"},"geometry":{"type":"Point","coordinates":[11.03511,59.95702]}},{"type":"Feature","properties":{"name":"Lillestrøm bussterminal","stoptypename":"Bus","zone_name":"2Ø"},"geometry":{"type":"Point","coordinates":[11.04352,59.95389]}},{"type":"Feature","properties":{"name":"Kjerulfs gate","stoptypename":"Bus","zone_name":"2Ø"},"geometry":{"type":"Point","coordinates":[11.05218,59.95584]}},{"type":"Feature","properties":{"name":"St. Olavs gate","stoptypename":"Bus","zone_name":"2Ø"},"geometry":{"type":"Point","coordinates":[11.05669,59.95498]}},{"type":"Feature","properties":{"name":"Leiv Eirikssons gate","stoptypename":"Bus","zone_name":"2Ø"},"geometry":{"type":"Point","coordinates":[11.06151,59.95488]}},{"type":"Feature","properties":{"name":"Strømmen kirke","stoptypename":"Bus","zone_name":"2Ø"},"geometry":{"type":"Point","coordinates":[11.01667,59.95301]}},{"type":"Feature","properties":{"name":"Bernt Ankers vei","stoptypename":"Bus","zone_name":"2Ø"},"geometry":{"type":"Point","coordinates":[11.0163,59.95094]}},{"type":"Feature","properties":{"name":"Kastellveien","stoptypename":"Bus","zone_name":"2Ø"},"geometry":{"type":"Point","coordinates":[11.01952,59.95044]}},{"type":"Feature","properties":{"name":"Kurbadet","stoptypename":"Bus","zone_name":"2Ø"},"geometry":{"type":"Point","coordinates":[11.02084,59.94925]}},{"type":"Feature","properties":{"name":"Rettenveien","stoptypename":"Bus","zone_name":"2Ø"},"geometry":{"type":"Point","coordinates":[11.01177,59.95909]}},{"type":"Feature","properties":{"name":"Vinsnes","stoptypename":"Bus"},"geometry":{"type":"Point","coordinates":[11.11878,59.94151]}},{"type":"Feature","properties":{"name":"Furulund","stoptypename":"Bus"},"geometry":{"type":"Point","coordinates":[11.13324,59.9389]}},{"type":"Feature","properties":{"name":"Foss","stoptypename":"Bus"},"geometry":{"type":"Point","coordinates":[11.13393,59.93338]}},{"type":"Feature","properties":{"name":"Vitåsen","stoptypename":"Bus"},"geometry":{"type":"Point","coordinates":[11.14913,59.94083]}},{"type":"Feature","properties":{"name":"Svingen stasjon","stoptypename":"Bus"},"geometry":{"type":"Point","coordinates":[11.17732,59.92879]}},{"type":"Feature","properties":{"name":"Skjønberg","stoptypename":"Bus","zone_name":"2Ø"},"geometry":{"type":"Point","coordinates":[11.08416,59.87227]}},{"type":"Feature","properties":{"name":"Nordby skole","stoptypename":"Bus","zone_name":"2Ø"},"geometry":{"type":"Point","coordinates":[11.09273,59.86487]}},{"type":"Feature","properties":{"name":"Tomter","stoptypename":"Bus","zone_name":"2Ø"},"geometry":{"type":"Point","coordinates":[11.09458,59.86203]}},{"type":"Feature","properties":{"name":"Fjellstadfeltet","stoptypename":"Bus","zone_name":"2Ø"},"geometry":{"type":"Point","coordinates":[11.09664,59.85744]}},{"type":"Feature","properties":{"name":"Grinitajet","stoptypename":"Bus","zone_name":"2Ø"},"geometry":{"type":"Point","coordinates":[11.08837,59.87927]}},{"type":"Feature","properties":{"name":"Lund","stoptypename":"Bus","zone_name":"2Ø"},"geometry":{"type":"Point","coordinates":[11.07256,59.92464]}},{"type":"Feature","properties":{"name":"Sundhagen","stoptypename":"Bus","zone_name":"2Ø"},"geometry":{"type":"Point","coordinates":[11.06991,59.9283]}},{"type":"Feature","properties":{"name":"Aamodt","stoptypename":"Bus","zone_name":"2Ø"},"geometry":{"type":"Point","coordinates":[11.0682,59.93156]}},{"type":"Feature","properties":{"name":"Orderud","stoptypename":"Bus","zone_name":"2Ø"},"geometry":{"type":"Point","coordinates":[11.04952,59.9451]}},{"type":"Feature","properties":{"name":"Borgen","stoptypename":"Bus","zone_name":"2Ø"},"geometry":{"type":"Point","coordinates":[11.0589,59.94202]}},{"type":"Feature","properties":{"name":"Aamodttoppen","stoptypename":"Bus","zone_name":"2Ø"},"geometry":{"type":"Point","coordinates":[11.06848,59.93362]}},{"type":"Feature","properties":{"name":"Logn","stoptypename":"Bus","zone_name":"2Ø"},"geometry":{"type":"Point","coordinates":[11.06247,59.93901]}},{"type":"Feature","properties":{"name":"Furukollen","stoptypename":"Bus","zone_name":"2Ø"},"geometry":{"type":"Point","coordinates":[11.03053,59.94558]}},{"type":"Feature","properties":{"name":"Karibekken","stoptypename":"Bus","zone_name":"2Ø"},"geometry":{"type":"Point","coordinates":[11.1289,59.84422]}},{"type":"Feature","properties":{"name":"Fjerdingby","stoptypename":"Bus","zone_name":"2Ø"},"geometry":{"type":"Point","coordinates":[11.07197,59.92211]}},{"type":"Feature","properties":{"name":"Rælingen rådhus","stoptypename":"Bus","zone_name":"2Ø"},"geometry":{"type":"Point","coordinates":[11.06682,59.92616]}},{"type":"Feature","properties":{"name":"Rælingsbrua","stoptypename":"Bus","zone_name":"2Ø"},"geometry":{"type":"Point","coordinates":[11.03711,59.95145]}},{"type":"Feature","properties":{"name":"Dammensvika","stoptypename":"Bus","zone_name":"2Ø"},"geometry":{"type":"Point","coordinates":[11.04035,59.94977]}},{"type":"Feature","properties":{"name":"Hagastubakken","stoptypename":"Bus","zone_name":"2Ø"},"geometry":{"type":"Point","coordinates":[11.05063,59.94201]}},{"type":"Feature","properties":{"name":"Øgardshøgda","stoptypename":"Bus","zone_name":"2Ø"},"geometry":{"type":"Point","coordinates":[11.05461,59.93859]}},{"type":"Feature","properties":{"name":"Norum","stoptypename":"Bus","zone_name":"2Ø"},"geometry":{"type":"Point","coordinates":[11.05912,59.93496]}},{"type":"Feature","properties":{"name":"Dovre fabrikker","stoptypename":"Bus","zone_name":"2Ø"},"geometry":{"type":"Point","coordinates":[11.06045,59.92967]}},{"type":"Feature","properties":{"name":"Rud skole","stoptypename":"Bus","zone_name":"2Ø"},"geometry":{"type":"Point","coordinates":[11.04208,59.945]}},{"type":"Feature","properties":{"name":"Petrinehøy","stoptypename":"Bus","zone_name":"2Ø"},"geometry":{"type":"Point","coordinates":[11.03513,59.94618]}},{"type":"Feature","properties":{"name":"Smestad skole","stoptypename":"Bus","zone_name":"2Ø"},"geometry":{"type":"Point","coordinates":[11.08994,59.90794]}},{"type":"Feature","properties":{"name":"Holt","stoptypename":"Bus","zone_name":"2Ø"},"geometry":{"type":"Point","coordinates":[11.08343,59.9117]}},{"type":"Feature","properties":{"name":"Narvestad","stoptypename":"Bus","zone_name":"2Ø"},"geometry":{"type":"Point","coordinates":[11.10866,59.85119]}},{"type":"Feature","properties":{"name":"Bye","stoptypename":"Bus","zone_name":"2Ø"},"geometry":{"type":"Point","coordinates":[11.09978,59.854]}},{"type":"Feature","properties":{"name":"Eikeliveien","stoptypename":"Bus","zone_name":"2Ø"},"geometry":{"type":"Point","coordinates":[11.03446,59.95209]}},{"type":"Feature","properties":{"name":"Linjeveien","stoptypename":"Bus","zone_name":"2Ø"},"geometry":{"type":"Point","coordinates":[11.0248,59.95212]}},{"type":"Feature","properties":{"name":"Øvre Strømsdal","stoptypename":"Bus","zone_name":"2Ø"},"geometry":{"type":"Point","coordinates":[11.02661,59.94559]}},{"type":"Feature","properties":{"name":"Sæterveien","stoptypename":"Bus","zone_name":"2Ø"},"geometry":{"type":"Point","coordinates":[11.0282,59.94438]}},{"type":"Feature","properties":{"name":"Teigen","stoptypename":"Bus","zone_name":"2Ø"},"geometry":{"type":"Point","coordinates":[11.11668,59.84858]}},{"type":"Feature","properties":{"name":"Årnesvegen","stoptypename":"Bus","zone_name":"2Ø"},"geometry":{"type":"Point","coordinates":[11.10026,59.89043]}},{"type":"Feature","properties":{"name":"Hektnereika","stoptypename":"Bus","zone_name":"2Ø"},"geometry":{"type":"Point","coordinates":[11.09838,59.89542]}},{"type":"Feature","properties":{"name":"Oppsal","stoptypename":"Bus","zone_name":"2Ø"},"geometry":{"type":"Point","coordinates":[11.09464,59.90012]}},{"type":"Feature","properties":{"name":"Engerhagan","stoptypename":"Bus","zone_name":"2Ø"},"geometry":{"type":"Point","coordinates":[11.09279,59.90248]}},{"type":"Feature","properties":{"name":"Kirkeby","stoptypename":"Bus","zone_name":"2Ø"},"geometry":{"type":"Point","coordinates":[11.08092,59.91633]}},{"type":"Feature","properties":{"name":"Hammeren skole","stoptypename":"Bus"},"geometry":{"type":"Point","coordinates":[11.18418,59.75356]}},{"type":"Feature","properties":{"name":"Nordre Mysen gård","stoptypename":"Bus"},"geometry":{"type":"Point","coordinates":[11.17655,59.74899]}},{"type":"Feature","properties":{"name":"Heier veistasjon","stoptypename":"Bus"},"geometry":{"type":"Point","coordinates":[11.16787,59.7445]}},{"type":"Feature","properties":{"name":"Flatebysenteret","stoptypename":"Bus","zone_name":"2Ø"},"geometry":{"type":"Point","coordinates":[11.15373,59.82855]}},{"type":"Feature","properties":{"name":"Hagenveien","stoptypename":"Bus","zone_name":"2Ø"},"geometry":{"type":"Point","coordinates":[11.14765,59.83102]}},{"type":"Feature","properties":{"name":"Fredheimveien","stoptypename":"Bus","zone_name":"2Ø"},"geometry":{"type":"Point","coordinates":[11.14299,59.83297]}},{"type":"Feature","properties":{"name":"Bjerke","stoptypename":"Bus","zone_name":"2Ø"},"geometry":{"type":"Point","coordinates":[11.13774,59.83453]}},{"type":"Feature","properties":{"name":"Rud","stoptypename":"Bus","zone_name":"2Ø"},"geometry":{"type":"Point","coordinates":[11.14762,59.83459]}},{"type":"Feature","properties":{"name":"Linås","stoptypename":"Bus"},"geometry":{"type":"Point","coordinates":[11.18768,59.79549]}},{"type":"Feature","properties":{"name":"Flateby boligfelt","stoptypename":"Bus","zone_name":"2Ø"},"geometry":{"type":"Point","coordinates":[11.14265,59.83742]}},{"type":"Feature","properties":{"name":"Svartebekk","stoptypename":"Bus"},"geometry":{"type":"Point","coordinates":[11.166,59.75861]}},{"type":"Feature","properties":{"name":"Solberg","stoptypename":"Bus"},"geometry":{"type":"Point","coordinates":[11.18043,59.78785]}},{"type":"Feature","properties":{"name":"Vaslestad","stoptypename":"Bus"},"geometry":{"type":"Point","coordinates":[11.1836,59.79252]}},{"type":"Feature","properties":{"name":"Omberg","stoptypename":"Bus","zone_name":"2Ø"},"geometry":{"type":"Point","coordinates":[11.18031,59.81047]}},{"type":"Feature","properties":{"name":"Hagen","stoptypename":"Bus","zone_name":"2Ø"},"geometry":{"type":"Point","coordinates":[11.18276,59.80607]}},{"type":"Feature","properties":{"name":"Fløtten","stoptypename":"Bus"},"geometry":{"type":"Point","coordinates":[11.18396,59.8022]}},{"type":"Feature","properties":{"name":"Gjestang","stoptypename":"Bus","zone_name":"2Ø"},"geometry":{"type":"Point","coordinates":[11.17588,59.81635]}},{"type":"Feature","properties":{"name":"Sikkebøl","stoptypename":"Bus","zone_name":"2Ø"},"geometry":{"type":"Point","coordinates":[11.16942,59.81922]}},{"type":"Feature","properties":{"name":"Stranden skole","stoptypename":"Bus","zone_name":"2Ø"},"geometry":{"type":"Point","coordinates":[11.16355,59.82169]}},{"type":"Feature","properties":{"name":"Sundby","stoptypename":"Bus","zone_name":"2Ø"},"geometry":{"type":"Point","coordinates":[11.16005,59.82452]}},{"type":"Feature","properties":{"name":"Gjeddevannsveien","stoptypename":"Bus","zone_name":"2Ø"},"geometry":{"type":"Point","coordinates":[11.12865,59.83622]}},{"type":"Feature","properties":{"name":"Sagdalen","stoptypename":"Bus","zone_name":"2Ø"},"geometry":{"type":"Point","coordinates":[11.01612,59.95722]}},{"type":"Feature","properties":{"name":"Nittedalsgata","stoptypename":"Bus","zone_name":"2Ø"},"geometry":{"type":"Point","coordinates":[11.04686,59.95646]}},{"type":"Feature","properties":{"name":"Stortorget","stoptypename":"Bus","zone_name":"2Ø"},"geometry":{"type":"Point","coordinates":[11.05077,59.95776]}},{"type":"Feature","properties":{"name":"Hvammer","stoptypename":"Bus"},"geometry":{"type":"Point","coordinates":[11.28318,59.73312]}},{"type":"Feature","properties":{"name":"Vinsnes","stoptypename":"Bus"},"geometry":{"type":"Point","coordinates":[11.12307,59.94295]}},{"type":"Feature","properties":{"name":"Strømsdalen","stoptypename":"Bus","zone_name":"2Ø"},"geometry":{"type":"Point","coordinates":[11.0267,59.94797]}},{"type":"Feature","properties":{"name":"Lillestrøm stasjon","stoptypename":"Bus","zone_name":"2Ø"},"geometry":{"type":"Point","coordinates":[11.04612,59.9526]}},{"type":"Feature","properties":{"name":"Engerkleiva","stoptypename":"Bus"},"geometry":{"type":"Point","coordinates":[11.15538,59.93423]}},{"type":"Feature","properties":{"name":"Faldalsveien","stoptypename":"Bus"},"geometry":{"type":"Point","coordinates":[11.16454,59.92986]}},{"type":"Feature","properties":{"name":"Fossumsvingen","stoptypename":"Bus"},"geometry":{"type":"Point","coordinates":[11.25525,59.98233]}},{"type":"Feature","properties":{"name":"Lillestrøm kirke","stoptypename":"Bus","zone_name":"2Ø"},"geometry":{"type":"Point","coordinates":[11.04894,59.95847]}},{"type":"Feature","properties":{"name":"Lillestrøm bussterminal","stoptypename":"Bus","zone_name":"2Ø"},"geometry":{"type":"Point","coordinates":[11.04287,59.95427]}},{"type":"Feature","properties":{"name":"Kjustad","stoptypename":"Bus"},"geometry":{"type":"Point","coordinates":[11.19265,59.94292]}},{"type":"Feature","properties":{"name":"Tuen stasjon","stoptypename":"Bus"},"geometry":{"type":"Point","coordinates":[11.10324,59.94295]}}]}