{"type":"FeatureCollection","features":[{"type":"Feature","properties":{"navn":"Kuskerudveien 16","referanse":"Parkeringsregisteret","type":"LANGS_KJOREBANE","innfartsparkering":"NEI","antall_avgiftsfrie_plasser":25,"antall_avgiftsbelagte_plasser":0,"plasser_reservert_handikappede":1,"antall_ladeplasser":0,"adresse":"Kuskerudveien 16","parkeringstilbyder_navn":"ROMERIKE PARKERING AS"},"geometry":{"type":"Point","coordinates":[11.24129,59.98686]}},{"type":"Feature","properties":{"navn":"Elvesvingen 23","referanse":"Parkeringsregisteret","type":"AVGRENSET_OMRADE","innfartsparkering":"NEI","antall_avgiftsfrie_plasser":0,"antall_avgiftsbelagte_plasser":82,"plasser_reservert_handikappede":2,"antall_ladeplasser":0,"adresse":"Elvesvingen 23","parkeringstilbyder_navn":"APCOA NORWAY AS"},"geometry":{"type":"Point","coordinates":[11.03259,59.96486]}},{"type":"Feature","properties":{"navn":"Gamle Fetvei 13","referanse":"Parkeringsregisteret","type":"AVGRENSET_OMRADE","innfartsparkering":"NEI","antall_avgiftsfrie_plasser":141,"antall_avgiftsbelagte_plasser":0,"plasser_reservert_handikappede":4,"antall_ladeplasser":0,"adresse":"Gamle Fetvei 13","parkeringstilbyder_navn":"PARK NORDIC AS"},"geometry":{"type":"Point","coordinates":[11.16245,59.92813]}},{"type":"Feature","properties":{"navn":"Nittedalsgata 27","referanse":"Parkeringsregisteret","type":"AVGRENSET_OMRADE","innfartsparkering":"NEI","antall_avgiftsfrie_plasser":0,"antall_avgiftsbelagte_plasser":50,"plasser_reservert_handikappede":2,"antall_ladeplasser":0,"adresse":"Nittedalsgata 27","parkeringstilbyder_navn":"AKER P-DRIFT AS"},"geometry":{"type":"Point","coordinates":[11.04646,59.95731]}},{"type":"Feature","properties":{"navn":"Messeveien, maks 3 timer ","referanse":"Parkeringsregisteret","type":"LANGS_KJOREBANE","innfartsparkering":"NEI","antall_avgiftsfrie_plasser":15,"antall_avgiftsbelagte_plasser":0,"plasser_reservert_handikappede":0,"antall_ladeplasser":0,"adresse":"Messeveien","parkeringstilbyder_navn":"LILLESTRØM PARKERING AS"},"geometry":{"type":"Point","coordinates":[11.0576,59.94931]}},{"type":"Feature","properties":{"navn":"Gamle Fetvei 20","referanse":"Parkeringsregisteret","type":"AVGRENSET_OMRADE","innfartsparkering":"NEI","antall_avgiftsfrie_plasser":0,"antall_avgiftsbelagte_plasser":57,"plasser_reservert_handikappede":3,"antall_ladeplasser":2,"adresse":"Gamle Fetvei 20","parkeringstilbyder_navn":"PARK NORDIC AS"},"geometry":{"type":"Point","coordinates":[11.16336,59.92773]}},{"type":"Feature","properties":{"navn":"Stalsberghagen","referanse":"Parkeringsregisteret","type":"AVGRENSET_OMRADE","innfartsparkering":"NEI","antall_avgiftsfrie_plasser":40,"antall_avgiftsbelagte_plasser":0,"plasser_reservert_handikappede":1,"antall_ladeplasser":0,"adresse":"Øvre Rælingsveg 2","parkeringstilbyder_navn":"RÆLINGEN KOMMUNE"},"geometry":{"type":"Point","coordinates":[11.02383,59.94585]}},{"type":"Feature","properties":{"navn":"Gårdsvegen","referanse":"Parkeringsregisteret","type":"AVGRENSET_OMRADE","innfartsparkering":"NEI","antall_avgiftsfrie_plasser":6,"antall_avgiftsbelagte_plasser":0,"plasser_reservert_handikappede":1,"antall_ladeplasser":0,"adresse":"Gårdsvegen","parkeringstilbyder_navn":"RÆLINGEN KOMMUNE"},"geometry":{"type":"Point","coordinates":[11.06155,59.93358]}},{"type":"Feature","properties":{"navn":"Sagbakken","referanse":"Parkeringsregisteret","type":"AVGRENSET_OMRADE","innfartsparkering":"NEI","antall_avgiftsfrie_plasser":7,"antall_avgiftsbelagte_plasser":0,"plasser_reservert_handikappede":1,"antall_ladeplasser":0,"adresse":"Sagbakken 49","parkeringstilbyder_navn":"RÆLINGEN KOMMUNE"},"geometry":{"type":"Point","coordinates":[11.0976,59.86695]}},{"type":"Feature","properties":{"navn":"Rådhuset","referanse":"Parkeringsregisteret","type":"AVGRENSET_OMRADE","innfartsparkering":"NEI","antall_avgiftsfrie_plasser":17,"antall_avgiftsbelagte_plasser":0,"plasser_reservert_handikappede":6,"antall_ladeplasser":4,"adresse":"Bjørnholthagan 6","parkeringstilbyder_navn":"RÆLINGEN KOMMUNE"},"geometry":{"type":"Point","coordinates":[11.06695,59.92572]}},{"type":"Feature","properties":{"navn":"Stormyra","referanse":"Parkeringsregisteret","type":"AVGRENSET_OMRADE","innfartsparkering":"NEI","antall_avgiftsfrie_plasser":3,"antall_avgiftsbelagte_plasser":0,"plasser_reservert_handikappede":0,"antall_ladeplasser":0,"adresse":"Stormyrvegen","parkeringstilbyder_navn":"RÆLINGEN KOMMUNE"},"geometry":{"type":"Point","coordinates":[11.03919,59.9454]}},{"type":"Feature","properties":{"navn":"Chr. Tomters veg","referanse":"Parkeringsregisteret","type":"AVGRENSET_OMRADE","innfartsparkering":"NEI","antall_avgiftsfrie_plasser":10,"antall_avgiftsbelagte_plasser":0,"plasser_reservert_handikappede":1,"antall_ladeplasser":0,"adresse":"Sorenskrivervegen 10","parkeringstilbyder_navn":"RÆLINGEN KOMMUNE"},"geometry":{"type":"Point","coordinates":[11.03571,59.94829]}},{"type":"Feature","properties":{"navn":"Linjevegen","referanse":"Parkeringsregisteret","type":"AVGRENSET_OMRADE","innfartsparkering":"NEI","antall_avgiftsfrie_plasser":10,"antall_avgiftsbelagte_plasser":0,"plasser_reservert_handikappede":1,"antall_ladeplasser":0,"adresse":"Linjevegen 14-18","parkeringstilbyder_navn":"RÆLINGEN KOMMUNE"},"geometry":{"type":"Point","coordinates":[11.0253,59.9489]}},{"type":"Feature","properties":{"navn":"Rud område","referanse":"Parkeringsregisteret","type":"LANGS_KJOREBANE","innfartsparkering":"NEI","antall_avgiftsfrie_plasser":22,"antall_avgiftsbelagte_plasser":0,"plasser_reservert_handikappede":3,"antall_ladeplasser":0,"adresse":"Rud område","parkeringstilbyder_navn":"RÆLINGEN KOMMUNE"},"geometry":{"type":"Point","coordinates":[11.05151,59.94329]}},{"type":"Feature","properties":{"navn":"Vipevegen","referanse":"Parkeringsregisteret","type":"AVGRENSET_OMRADE","innfartsparkering":"NEI","antall_avgiftsfrie_plasser":7,"antall_avgiftsbelagte_plasser":0,"plasser_reservert_handikappede":1,"antall_ladeplasser":0,"adresse":"Vipevegen","parkeringstilbyder_navn":"RÆLINGEN KOMMUNE"},"geometry":{"type":"Point","coordinates":[11.06974,59.93305]}},{"type":"Feature","properties":{"navn":"Trivselssenteret","referanse":"Parkeringsregisteret","type":"AVGRENSET_OMRADE","innfartsparkering":"NEI","antall_avgiftsfrie_plasser":2,"antall_avgiftsbelagte_plasser":0,"plasser_reservert_handikappede":2,"antall_ladeplasser":0,"adresse":"Kirkebyvegen 2","parkeringstilbyder_navn":"RÆLINGEN KOMMUNE"},"geometry":{"type":"Point","coordinates":[11.07203,59.92152]}},{"type":"Feature","properties":{"navn":"Haugervegen","referanse":"Parkeringsregisteret","type":"AVGRENSET_OMRADE","innfartsparkering":"NEI","antall_avgiftsfrie_plasser":10,"antall_avgiftsbelagte_plasser":0,"plasser_reservert_handikappede":0,"antall_ladeplasser":0,"adresse":"Haugervegen","parkeringstilbyder_navn":"RÆLINGEN KOMMUNE"},"geometry":{"type":"Point","coordinates":[11.07031,59.92265]}},{"type":"Feature","properties":{"navn":"Bjørnholthagan","referanse":"Parkeringsregisteret","type":"AVGRENSET_OMRADE","innfartsparkering":"NEI","antall_avgiftsfrie_plasser":16,"antall_avgiftsbelagte_plasser":0,"plasser_reservert_handikappede":0,"antall_ladeplasser":0,"adresse":"Bjørnholthagan","parkeringstilbyder_navn":"RÆLINGEN KOMMUNE"},"geometry":{"type":"Point","coordinates":[11.06565,59.92712]}},{"type":"Feature","properties":{"navn":"Sorenskrivervegen","referanse":"Parkeringsregisteret","type":"AVGRENSET_OMRADE","innfartsparkering":"NEI","antall_avgiftsfrie_plasser":8,"antall_avgiftsbelagte_plasser":0,"plasser_reservert_handikappede":0,"antall_ladeplasser":0,"adresse":"Sorenskrivervegen 7","parkeringstilbyder_navn":"RÆLINGEN KOMMUNE"},"geometry":{"type":"Point","coordinates":[11.03668,59.94687]}},{"type":"Feature","properties":{"navn":"Brandvoldgata","referanse":"Parkeringsregisteret","type":"AVGRENSET_OMRADE","innfartsparkering":"NEI","antall_avgiftsfrie_plasser":0,"antall_avgiftsbelagte_plasser":25,"plasser_reservert_handikappede":2,"antall_ladeplasser":0,"adresse":"Brandvoldgata 2","parkeringstilbyder_navn":"ONEPARK AS AVD HOVEDKONTOR"},"geometry":{"type":"Point","coordinates":[11.04297,59.95594]}},{"type":"Feature","properties":{"navn":"Nordby Tomterstien","referanse":"Parkeringsregisteret","type":"AVGRENSET_OMRADE","innfartsparkering":"JA","antall_avgiftsfrie_plasser":27,"antall_avgiftsbelagte_plasser":0,"plasser_reservert_handikappede":2,"antall_ladeplasser":2,"adresse":"Tomterstien 21","parkeringstilbyder_navn":"RÆLINGEN KOMMUNE"},"geometry":{"type":"Point","coordinates":[11.09317,59.86484]}},{"type":"Feature","properties":{"navn":"Kasjotten Maya Apartments","referanse":"Parkeringsregisteret","type":"PARKERINGSHUS","innfartsparkering":"NEI","antall_avgiftsfrie_plasser":0,"antall_avgiftsbelagte_plasser":45,"plasser_reservert_handikappede":0,"antall_ladeplasser":0,"adresse":"Skjettenveien 44","parkeringstilbyder_navn":"VESTPARK AS"},"geometry":{"type":"Point","coordinates":[11.00845,59.96256]}},{"type":"Feature","properties":{"navn":"1049","referanse":"Parkeringsregisteret","type":"AVGRENSET_OMRADE","innfartsparkering":"NEI","antall_avgiftsfrie_plasser":7,"antall_avgiftsbelagte_plasser":0,"plasser_reservert_handikappede":1,"antall_ladeplasser":0,"adresse":"Strømsveien 89","parkeringstilbyder_navn":"P-SERVICE AS"},"geometry":{"type":"Point","coordinates":[11.01179,59.95187]}},{"type":"Feature","properties":{"navn":"Sørumsand Stasjon","referanse":"Parkeringsregisteret","type":"AVGRENSET_OMRADE","innfartsparkering":"JA","antall_avgiftsfrie_plasser":123,"antall_avgiftsbelagte_plasser":12,"plasser_reservert_handikappede":3,"antall_ladeplasser":0,"adresse":"Sørumsandvegen 86","parkeringstilbyder_navn":"APCOA NORWAY AS"},"geometry":{"type":"Point","coordinates":[11.2402,59.98587]}},{"type":"Feature","properties":{"navn":"Lillestrøm rådhus","referanse":"Parkeringsregisteret","type":"AVGRENSET_OMRADE","innfartsparkering":"NEI","antall_avgiftsfrie_plasser":0,"antall_avgiftsbelagte_plasser":45,"plasser_reservert_handikappede":5,"antall_ladeplasser":6,"adresse":"Jonas Lies gate 20","parkeringstilbyder_navn":"ROMERIKE PARKERING AS"},"geometry":{"type":"Point","coordinates":[11.03852,59.95491]}},{"type":"Feature","properties":{"navn":"Byhaven P-hus","referanse":"Parkeringsregisteret","type":"PARKERINGSHUS","innfartsparkering":"NEI","antall_avgiftsfrie_plasser":0,"antall_avgiftsbelagte_plasser":157,"plasser_reservert_handikappede":3,"antall_ladeplasser":6,"adresse":"Voldgata 9","parkeringstilbyder_navn":"ROMERIKE PARKERING AS"},"geometry":{"type":"Point","coordinates":[11.04674,59.95533]}},{"type":"Feature","properties":{"navn":"Meieritomta","referanse":"Parkeringsregisteret","type":"AVGRENSET_OMRADE","innfartsparkering":"NEI","antall_avgiftsfrie_plasser":0,"antall_avgiftsbelagte_plasser":115,"plasser_reservert_handikappede":2,"antall_ladeplasser":0,"adresse":"Solheimsgata 7","parkeringstilbyder_navn":"AIMO PARK NORWAY AS"},"geometry":{"type":"Point","coordinates":[11.05007,59.95543]}},{"type":"Feature","properties":{"navn":"Tærud P-hus","referanse":"Parkeringsregisteret","type":"PARKERINGSHUS","innfartsparkering":"NEI","antall_avgiftsfrie_plasser":2,"antall_avgiftsbelagte_plasser":99,"plasser_reservert_handikappede":3,"antall_ladeplasser":2,"adresse":"Tærudgata 1","parkeringstilbyder_navn":"AIMO PARK NORWAY AS"},"geometry":{"type":"Point","coordinates":[11.04741,59.95215]}},{"type":"Feature","properties":{"navn":"Lillestrøm Senter Syd P-hus","referanse":"Parkeringsregisteret","type":"PARKERINGSHUS","innfartsparkering":"JA","antall_avgiftsfrie_plasser":0,"antall_avgiftsbelagte_plasser":761,"plasser_reservert_handikappede":9,"antall_ladeplasser":0,"adresse":"Stillverksveien 7","parkeringstilbyder_navn":"AIMO PARK NORWAY AS"},"geometry":{"type":"Point","coordinates":[11.04801,59.95315]}},{"type":"Feature","properties":{"navn":"Portalen P-hus","referanse":"Parkeringsregisteret","type":"PARKERINGSHUS","innfartsparkering":"NEI","antall_avgiftsfrie_plasser":0,"antall_avgiftsbelagte_plasser":35,"plasser_reservert_handikappede":2,"antall_ladeplasser":2,"adresse":"Kanalveien 14","parkeringstilbyder_navn":"AIMO PARK NORWAY AS"},"geometry":{"type":"Point","coordinates":[11.04635,59.95166]}},{"type":"Feature","properties":{"navn":"Lillestrøm Torv","referanse":"Parkeringsregisteret","type":"PARKERINGSHUS","innfartsparkering":"NEI","antall_avgiftsfrie_plasser":6,"antall_avgiftsbelagte_plasser":244,"plasser_reservert_handikappede":6,"antall_ladeplasser":10,"adresse":"Torvet 6","parkeringstilbyder_navn":"AIMO PARK NORWAY AS"},"geometry":{"type":"Point","coordinates":[11.04873,59.95602]}},{"type":"Feature","properties":{"navn":"Romerike helsebygg","referanse":"Parkeringsregisteret","type":"PARKERINGSHUS","innfartsparkering":"NEI","antall_avgiftsfrie_plasser":0,"antall_avgiftsbelagte_plasser":342,"plasser_reservert_handikappede":34,"antall_ladeplasser":8,"adresse":"Dampsagveien 2D","parkeringstilbyder_navn":"AIMO PARK NORWAY AS"},"geometry":{"type":"Point","coordinates":[11.04169,59.95375]}},{"type":"Feature","properties":{"navn":"Kanalveien 13","referanse":"Parkeringsregisteret","type":"PARKERINGSHUS","innfartsparkering":"NEI","antall_avgiftsfrie_plasser":0,"antall_avgiftsbelagte_plasser":114,"plasser_reservert_handikappede":4,"antall_ladeplasser":0,"adresse":"Kanalveien 13","parkeringstilbyder_navn":"TIME PARK AS"},"geometry":{"type":"Point","coordinates":[11.04575,59.95166]}},{"type":"Feature","properties":{"navn":"Smestadbråtan parkeringsplass","referanse":"Parkeringsregisteret","type":"AVGRENSET_OMRADE","innfartsparkering":"NEI","antall_avgiftsfrie_plasser":25,"antall_avgiftsbelagte_plasser":0,"plasser_reservert_handikappede":0,"antall_ladeplasser":0,"adresse":"Smestadbråtan","parkeringstilbyder_navn":"RÆLINGEN KOMMUNE"},"geometry":{"type":"Point","coordinates":[11.09336,59.90801]}},{"type":"Feature","properties":{"navn":"Voldgata 3","referanse":"Parkeringsregisteret","type":"AVGRENSET_OMRADE","innfartsparkering":"NEI","antall_avgiftsfrie_plasser":0,"antall_avgiftsbelagte_plasser":45,"plasser_reservert_handikappede":1,"antall_ladeplasser":0,"adresse":"Voldgata 3","parkeringstilbyder_navn":"SKEDSMO PARKERING AS"},"geometry":{"type":"Point","coordinates":[11.04857,59.95505]}},{"type":"Feature","properties":{"navn":"Gjerdrumgsgata","referanse":"Parkeringsregisteret","type":"LANGS_KJOREBANE","innfartsparkering":"NEI","antall_avgiftsfrie_plasser":0,"antall_avgiftsbelagte_plasser":20,"plasser_reservert_handikappede":0,"antall_ladeplasser":0,"adresse":"Gjerdrumsgata 30","parkeringstilbyder_navn":"LILLESTRØM PARKERING AS"},"geometry":{"type":"Point","coordinates":[11.04656,59.95943]}},{"type":"Feature","properties":{"navn":"Stortorgene","referanse":"Parkeringsregisteret","type":"AVGRENSET_OMRADE","innfartsparkering":"NEI","antall_avgiftsfrie_plasser":0,"antall_avgiftsbelagte_plasser":231,"plasser_reservert_handikappede":12,"antall_ladeplasser":6,"adresse":"Skedsmogata 7","parkeringstilbyder_navn":"LILLESTRØM PARKERING AS"},"geometry":{"type":"Point","coordinates":[11.05122,59.95796]}},{"type":"Feature","properties":{"navn":"Årnestangen","referanse":"Parkeringsregisteret","type":"LANGS_KJOREBANE","innfartsparkering":"NEI","antall_avgiftsfrie_plasser":12,"antall_avgiftsbelagte_plasser":0,"plasser_reservert_handikappede":0,"antall_ladeplasser":0,"adresse":"Årnesvegen","parkeringstilbyder_navn":"RÆLINGEN KOMMUNE"},"geometry":{"type":"Point","coordinates":[11.11361,59.88811]}},{"type":"Feature","properties":{"navn":"OBS Lillestrøm","referanse":"Parkeringsregisteret","type":"AVGRENSET_OMRADE","innfartsparkering":"NEI","antall_avgiftsfrie_plasser":0,"antall_avgiftsbelagte_plasser":240,"plasser_reservert_handikappede":8,"antall_ladeplasser":6,"adresse":"Nittedalsgata 50","parkeringstilbyder_navn":"ONEPARK AS AVD HOVEDKONTOR"},"geometry":{"type":"Point","coordinates":[11.03704,59.95694]}},{"type":"Feature","properties":{"navn":"Sørumsgata 11A","referanse":"Parkeringsregisteret","type":"LANGS_KJOREBANE","innfartsparkering":"NEI","antall_avgiftsfrie_plasser":0,"antall_avgiftsbelagte_plasser":5,"plasser_reservert_handikappede":0,"antall_ladeplasser":0,"adresse":"Sørumsgata 11A","parkeringstilbyder_navn":"SKEDSMO PARKERING AS"},"geometry":{"type":"Point","coordinates":[11.05288,59.95554]}},{"type":"Feature","properties":{"navn":"Skedsmo videregående skole","referanse":"Parkeringsregisteret","type":"AVGRENSET_OMRADE","innfartsparkering":"NEI","antall_avgiftsfrie_plasser":175,"antall_avgiftsbelagte_plasser":0,"plasser_reservert_handikappede":4,"antall_ladeplasser":2,"adresse":"Vestbygata 61","parkeringstilbyder_navn":"SKEDSMO PARKERING AS"},"geometry":{"type":"Point","coordinates":[11.04034,59.96542]}},{"type":"Feature","properties":{"navn":"Parkalleen","referanse":"Parkeringsregisteret","type":"LANGS_KJOREBANE","innfartsparkering":"NEI","antall_avgiftsfrie_plasser":0,"antall_avgiftsbelagte_plasser":17,"plasser_reservert_handikappede":0,"antall_ladeplasser":0,"adresse":"Parkalleen","parkeringstilbyder_navn":"LILLESTRØM PARKERING AS"},"geometry":{"type":"Point","coordinates":[11.04226,59.95869]}},{"type":"Feature","properties":{"navn":"Sophie Radichs vei","referanse":"Parkeringsregisteret","type":"LANGS_KJOREBANE","innfartsparkering":"NEI","antall_avgiftsfrie_plasser":0,"antall_avgiftsbelagte_plasser":37,"plasser_reservert_handikappede":0,"antall_ladeplasser":0,"adresse":"Sophie Radichs vei","parkeringstilbyder_navn":"LILLESTRØM PARKERING AS"},"geometry":{"type":"Point","coordinates":[11.03562,59.9664]}},{"type":"Feature","properties":{"navn":"Kjerulfs gate 1","referanse":"Parkeringsregisteret","type":"LANGS_KJOREBANE","innfartsparkering":"NEI","antall_avgiftsfrie_plasser":0,"antall_avgiftsbelagte_plasser":5,"plasser_reservert_handikappede":0,"antall_ladeplasser":0,"adresse":"Kjerulfs gate 1","parkeringstilbyder_navn":"LILLESTRØM PARKERING AS"},"geometry":{"type":"Point","coordinates":[11.05251,59.95622]}},{"type":"Feature","properties":{"navn":"Torvgata 9, Lillestrøm","referanse":"Parkeringsregisteret","type":"AVGRENSET_OMRADE","innfartsparkering":"NEI","antall_avgiftsfrie_plasser":30,"antall_avgiftsbelagte_plasser":34,"plasser_reservert_handikappede":3,"antall_ladeplasser":0,"adresse":"Nittedalsgata 14","parkeringstilbyder_navn":"AKER P-DRIFT AS"},"geometry":{"type":"Point","coordinates":[11.04634,59.95685]}},{"type":"Feature","properties":{"navn":"Thorvald Lammersgate 2-8","referanse":"Parkeringsregisteret","type":"AVGRENSET_OMRADE","innfartsparkering":"NEI","antall_avgiftsfrie_plasser":0,"antall_avgiftsbelagte_plasser":68,"plasser_reservert_handikappede":0,"antall_ladeplasser":0,"adresse":"Thorvald Lammers' gate 4","parkeringstilbyder_navn":"ONEPARK AS AVD HOVEDKONTOR"},"geometry":{"type":"Point","coordinates":[11.05327,59.95758]}},{"type":"Feature","properties":{"navn":"Nesgata, Lillestrøm","referanse":"Parkeringsregisteret","type":"LANGS_KJOREBANE","innfartsparkering":"NEI","antall_avgiftsfrie_plasser":0,"antall_avgiftsbelagte_plasser":8,"plasser_reservert_handikappede":0,"antall_ladeplasser":0,"adresse":"Nesgata 6B","parkeringstilbyder_navn":"LILLESTRØM PARKERING AS"},"geometry":{"type":"Point","coordinates":[11.05086,59.95188]}},{"type":"Feature","properties":{"navn":"Storgata 14B","referanse":"Parkeringsregisteret","type":"AVGRENSET_OMRADE","innfartsparkering":"NEI","antall_avgiftsfrie_plasser":0,"antall_avgiftsbelagte_plasser":40,"plasser_reservert_handikappede":1,"antall_ladeplasser":0,"adresse":"Storgata 14B","parkeringstilbyder_navn":"ONEPARK AS AVD HOVEDKONTOR"},"geometry":{"type":"Point","coordinates":[11.04725,59.95633]}},{"type":"Feature","properties":{"navn":"Thon Hotel Arena","referanse":"Parkeringsregisteret","type":"AVGRENSET_OMRADE","innfartsparkering":"NEI","antall_avgiftsfrie_plasser":0,"antall_avgiftsbelagte_plasser":80,"plasser_reservert_handikappede":3,"antall_ladeplasser":2,"adresse":"Nesgata 1","parkeringstilbyder_navn":"TIME PARK AS"},"geometry":{"type":"Point","coordinates":[11.04892,59.95122]}},{"type":"Feature","properties":{"navn":"Nerdrum Stasjon","referanse":"Parkeringsregisteret","type":"AVGRENSET_OMRADE","innfartsparkering":"JA","antall_avgiftsfrie_plasser":77,"antall_avgiftsbelagte_plasser":10,"plasser_reservert_handikappede":4,"antall_ladeplasser":0,"adresse":"Nerdrumveien 45B","parkeringstilbyder_navn":"APCOA NORWAY AS"},"geometry":{"type":"Point","coordinates":[11.14129,59.92308]}},{"type":"Feature","properties":{"navn":"Fetsund Stasjon","referanse":"Parkeringsregisteret","type":"AVGRENSET_OMRADE","innfartsparkering":"JA","antall_avgiftsfrie_plasser":0,"antall_avgiftsbelagte_plasser":201,"plasser_reservert_handikappede":5,"antall_ladeplasser":0,"adresse":"Gamle Fetvei 14","parkeringstilbyder_navn":"APCOA NORWAY AS"},"geometry":{"type":"Point","coordinates":[11.1612,59.92669]}},{"type":"Feature","properties":{"navn":"614","referanse":"Parkeringsregisteret","type":"AVGRENSET_OMRADE","innfartsparkering":"NEI","antall_avgiftsfrie_plasser":5,"antall_avgiftsbelagte_plasser":0,"plasser_reservert_handikappede":0,"antall_ladeplasser":0,"adresse":"Nedre Rælingsveg 157","parkeringstilbyder_navn":"P-SERVICE AS"},"geometry":{"type":"Point","coordinates":[11.04839,59.94557]}},{"type":"Feature","properties":{"navn":"Voldgata, snuplass ved K M Nordangers vei 20","referanse":"Parkeringsregisteret","type":"AVGRENSET_OMRADE","innfartsparkering":"NEI","antall_avgiftsfrie_plasser":15,"antall_avgiftsbelagte_plasser":0,"plasser_reservert_handikappede":0,"antall_ladeplasser":0,"adresse":"Voldgata 75","parkeringstilbyder_navn":"LILLESTRØM PARKERING AS"},"geometry":{"type":"Point","coordinates":[11.03054,59.95837]}},{"type":"Feature","properties":{"navn":"58","referanse":"Parkeringsregisteret","type":"AVGRENSET_OMRADE","innfartsparkering":"NEI","antall_avgiftsfrie_plasser":14,"antall_avgiftsbelagte_plasser":0,"plasser_reservert_handikappede":1,"antall_ladeplasser":8,"adresse":"Fetveien 175","parkeringstilbyder_navn":"P-SERVICE AS"},"geometry":{"type":"Point","coordinates":[11.15052,59.92724]}},{"type":"Feature","properties":{"navn":"68","referanse":"Parkeringsregisteret","type":"AVGRENSET_OMRADE","innfartsparkering":"NEI","antall_avgiftsfrie_plasser":7,"antall_avgiftsbelagte_plasser":0,"plasser_reservert_handikappede":1,"antall_ladeplasser":0,"adresse":"Stillverksveien 2","parkeringstilbyder_navn":"P-SERVICE AS"},"geometry":{"type":"Point","coordinates":[11.04997,59.9531]}},{"type":"Feature","properties":{"navn":"57","referanse":"Parkeringsregisteret","type":"AVGRENSET_OMRADE","innfartsparkering":"NEI","antall_avgiftsfrie_plasser":7,"antall_avgiftsbelagte_plasser":0,"plasser_reservert_handikappede":0,"antall_ladeplasser":0,"adresse":"Teatergata 6","parkeringstilbyder_navn":"P-SERVICE AS"},"geometry":{"type":"Point","coordinates":[11.05178,59.95639]}},{"type":"Feature","properties":{"navn":"53","referanse":"Parkeringsregisteret","type":"AVGRENSET_OMRADE","innfartsparkering":"NEI","antall_avgiftsfrie_plasser":7,"antall_avgiftsbelagte_plasser":0,"plasser_reservert_handikappede":1,"antall_ladeplasser":0,"adresse":"Nittedalsgata 66","parkeringstilbyder_navn":"P-SERVICE AS"},"geometry":{"type":"Point","coordinates":[11.03283,59.95732]}},{"type":"Feature","properties":{"navn":"Tuen Stasjon","referanse":"Parkeringsregisteret","type":"AVGRENSET_OMRADE","innfartsparkering":"NEI","antall_avgiftsfrie_plasser":16,"antall_avgiftsbelagte_plasser":0,"plasser_reservert_handikappede":0,"antall_ladeplasser":0,"adresse":"Tuen Stasjon","parkeringstilbyder_navn":"ROMERIKE PARKERING AS"},"geometry":{"type":"Point","coordinates":[11.103,59.94298]}},{"type":"Feature","properties":{"navn":"Karupvegen utfartsparkering","referanse":"Parkeringsregisteret","type":"LANGS_KJOREBANE","innfartsparkering":"NEI","antall_avgiftsfrie_plasser":10,"antall_avgiftsbelagte_plasser":0,"plasser_reservert_handikappede":0,"antall_ladeplasser":0,"adresse":"Karupvegen 9","parkeringstilbyder_navn":"RÆLINGEN KOMMUNE"},"geometry":{"type":"Point","coordinates":[11.03927,59.94218]}},{"type":"Feature","properties":{"navn":"Ulleråsen parkering","referanse":"Parkeringsregisteret","type":"LANGS_KJOREBANE","innfartsparkering":"NEI","antall_avgiftsfrie_plasser":4,"antall_avgiftsbelagte_plasser":0,"plasser_reservert_handikappede":0,"antall_ladeplasser":0,"adresse":"Ulleråsen 15","parkeringstilbyder_navn":"RÆLINGEN KOMMUNE"},"geometry":{"type":"Point","coordinates":[11.10033,59.85345]}},{"type":"Feature","properties":{"navn":"Norges Varemesse","referanse":"Parkeringsregisteret","type":"AVGRENSET_OMRADE","innfartsparkering":"NEI","antall_avgiftsfrie_plasser":0,"antall_avgiftsbelagte_plasser":2300,"plasser_reservert_handikappede":24,"antall_ladeplasser":13,"adresse":"Messeveien 8","parkeringstilbyder_navn":"ONEPARK AS AVD HOVEDKONTOR"},"geometry":{"type":"Point","coordinates":[11.05405,59.94972]}},{"type":"Feature","properties":{"navn":"Nesgata 4","referanse":"Parkeringsregisteret","type":"AVGRENSET_OMRADE","innfartsparkering":"NEI","antall_avgiftsfrie_plasser":0,"antall_avgiftsbelagte_plasser":30,"plasser_reservert_handikappede":0,"antall_ladeplasser":0,"adresse":"Nesgata 4","parkeringstilbyder_navn":"APCOA NORWAY AS"},"geometry":{"type":"Point","coordinates":[11.04967,59.95181]}},{"type":"Feature","properties":{"navn":"Torva friluftsområde","referanse":"Parkeringsregisteret","type":"AVGRENSET_OMRADE","innfartsparkering":"NEI","antall_avgiftsfrie_plasser":5,"antall_avgiftsbelagte_plasser":0,"plasser_reservert_handikappede":1,"antall_ladeplasser":0,"adresse":"Torvavegen","parkeringstilbyder_navn":"RÆLINGEN KOMMUNE"},"geometry":{"type":"Point","coordinates":[11.05075,59.94675]}},{"type":"Feature","properties":{"navn":"Jonas Lies gate, Lillestrøm Stasjon","referanse":"Parkeringsregisteret","type":"LANGS_KJOREBANE","innfartsparkering":"NEI","antall_avgiftsfrie_plasser":11,"antall_avgiftsbelagte_plasser":0,"plasser_reservert_handikappede":0,"antall_ladeplasser":0,"adresse":"Jonas Lies gate","parkeringstilbyder_navn":"LILLESTRØM PARKERING AS"},"geometry":{"type":"Point","coordinates":[11.04451,59.95403]}},{"type":"Feature","properties":{"navn":"Fetsund lenser","referanse":"Parkeringsregisteret","type":"AVGRENSET_OMRADE","innfartsparkering":"NEI","antall_avgiftsfrie_plasser":4,"antall_avgiftsbelagte_plasser":45,"plasser_reservert_handikappede":4,"antall_ladeplasser":0,"adresse":"lundveien 3","parkeringstilbyder_navn":"MIA - MUSEENE I AKERSHUS STI"},"geometry":{"type":"Point","coordinates":[11.15214,59.92153]}},{"type":"Feature","properties":{"navn":"Lillestrøm stasjon","referanse":"Parkeringsregisteret","type":"AVGRENSET_OMRADE","innfartsparkering":"JA","antall_avgiftsfrie_plasser":144,"antall_avgiftsbelagte_plasser":11,"plasser_reservert_handikappede":2,"antall_ladeplasser":0,"adresse":"Dampsagveien 12","parkeringstilbyder_navn":"APCOA NORWAY AS"},"geometry":{"type":"Point","coordinates":[11.04278,59.95224]}},{"type":"Feature","properties":{"navn":"Alexander Kiellands gate","referanse":"Parkeringsregisteret","type":"LANGS_KJOREBANE","innfartsparkering":"NEI","antall_avgiftsfrie_plasser":0,"antall_avgiftsbelagte_plasser":40,"plasser_reservert_handikappede":0,"antall_ladeplasser":0,"adresse":"Alexander Kiellands gate 1A","parkeringstilbyder_navn":"LILLESTRØM PARKERING AS"},"geometry":{"type":"Point","coordinates":[11.05379,59.9584]}},{"type":"Feature","properties":{"navn":"Vestbygata mellom Feiringgata og Kjellergata","referanse":"Parkeringsregisteret","type":"LANGS_KJOREBANE","innfartsparkering":"NEI","antall_avgiftsfrie_plasser":16,"antall_avgiftsbelagte_plasser":0,"plasser_reservert_handikappede":0,"antall_ladeplasser":0,"adresse":"Vestbygata","parkeringstilbyder_navn":"LILLESTRØM PARKERING AS"},"geometry":{"type":"Point","coordinates":[11.03895,59.9649]}},{"type":"Feature","properties":{"navn":"Øvre Rælingsveg 176","referanse":"Parkeringsregisteret","type":"AVGRENSET_OMRADE","innfartsparkering":"NEI","antall_avgiftsfrie_plasser":10,"antall_avgiftsbelagte_plasser":100,"plasser_reservert_handikappede":2,"antall_ladeplasser":4,"adresse":"Øvre Rælingsveg 176","parkeringstilbyder_navn":"AIMO PARK NORWAY AS"},"geometry":{"type":"Point","coordinates":[11.06187,59.93045]}},{"type":"Feature","properties":{"navn":"1037","referanse":"Parkeringsregisteret","type":"AVGRENSET_OMRADE","innfartsparkering":"NEI","antall_avgiftsfrie_plasser":54,"antall_avgiftsbelagte_plasser":0,"plasser_reservert_handikappede":2,"antall_ladeplasser":0,"adresse":"Nedre Rælingsveg 261","parkeringstilbyder_navn":"P-SERVICE AS"},"geometry":{"type":"Point","coordinates":[11.06735,59.93236]}},{"type":"Feature","properties":{"navn":"Scandic hotell Lillestrøm","referanse":"Parkeringsregisteret","type":"AVGRENSET_OMRADE","innfartsparkering":"NEI","antall_avgiftsfrie_plasser":1,"antall_avgiftsbelagte_plasser":0,"plasser_reservert_handikappede":0,"antall_ladeplasser":0,"adresse":"Stillverksveien 28","parkeringstilbyder_navn":"AIMO PARK NORWAY AS"},"geometry":{"type":"Point","coordinates":[11.04635,59.95254]}},{"type":"Feature","properties":{"navn":"LUX P-hus","referanse":"Parkeringsregisteret","type":"PARKERINGSHUS","innfartsparkering":"NEI","antall_avgiftsfrie_plasser":70,"antall_avgiftsbelagte_plasser":70,"plasser_reservert_handikappede":4,"antall_ladeplasser":0,"adresse":"Kjerulfs gate 3A","parkeringstilbyder_navn":"ONEPARK AS AVD HOVEDKONTOR"},"geometry":{"type":"Point","coordinates":[11.05372,59.95627]}},{"type":"Feature","properties":{"navn":"Strømsveien 100","referanse":"Parkeringsregisteret","type":"LANGS_KJOREBANE","innfartsparkering":"NEI","antall_avgiftsfrie_plasser":0,"antall_avgiftsbelagte_plasser":10,"plasser_reservert_handikappede":0,"antall_ladeplasser":0,"adresse":"Strømsveien 100","parkeringstilbyder_navn":"LILLESTRØM PARKERING AS"},"geometry":{"type":"Point","coordinates":[11.013,59.95339]}},{"type":"Feature","properties":{"navn":"Meierikvartalet P-hus","referanse":"Parkeringsregisteret","type":"PARKERINGSHUS","innfartsparkering":"NEI","antall_avgiftsfrie_plasser":4,"antall_avgiftsbelagte_plasser":30,"plasser_reservert_handikappede":2,"antall_ladeplasser":1,"adresse":"Sørumsgata 7","parkeringstilbyder_navn":"AIMO PARK NORWAY AS"},"geometry":{"type":"Point","coordinates":[11.05179,59.95557]}},{"type":"Feature","properties":{"navn":"Skjærvaveien, Strømmen","referanse":"Parkeringsregisteret","type":"LANGS_KJOREBANE","innfartsparkering":"NEI","antall_avgiftsfrie_plasser":25,"antall_avgiftsbelagte_plasser":0,"plasser_reservert_handikappede":0,"antall_ladeplasser":0,"adresse":"Skjærvaveien","parkeringstilbyder_navn":"LILLESTRØM PARKERING AS"},"geometry":{"type":"Point","coordinates":[11.01927,59.95839]}},{"type":"Feature","properties":{"navn":"Kulturparken P-hus","referanse":"Parkeringsregisteret","type":"PARKERINGSHUS","innfartsparkering":"NEI","antall_avgiftsfrie_plasser":0,"antall_avgiftsbelagte_plasser":48,"plasser_reservert_handikappede":3,"antall_ladeplasser":24,"adresse":"Jonas Lies gate 5","parkeringstilbyder_navn":"SKEDSMO PARKERING AS"},"geometry":{"type":"Point","coordinates":[11.04224,59.95472]}},{"type":"Feature","properties":{"navn":"St. Olavs gate 4","referanse":"Parkeringsregisteret","type":"AVGRENSET_OMRADE","innfartsparkering":"NEI","antall_avgiftsfrie_plasser":0,"antall_avgiftsbelagte_plasser":19,"plasser_reservert_handikappede":1,"antall_ladeplasser":0,"adresse":"St. Olavs gate 4","parkeringstilbyder_navn":"AIMO PARK NORWAY AS"},"geometry":{"type":"Point","coordinates":[11.05657,59.95529]}},{"type":"Feature","properties":{"navn":"Fjerdingby helsetun","referanse":"Parkeringsregisteret","type":"AVGRENSET_OMRADE","innfartsparkering":"NEI","antall_avgiftsfrie_plasser":150,"antall_avgiftsbelagte_plasser":0,"plasser_reservert_handikappede":4,"antall_ladeplasser":0,"adresse":"Haugervegen ","parkeringstilbyder_navn":"RÆLINGEN KOMMUNE"},"geometry":{"type":"Point","coordinates":[11.07015,59.9231]}},{"type":"Feature","properties":{"navn":"Aamodt ungdomshus","referanse":"Parkeringsregisteret","type":"AVGRENSET_OMRADE","innfartsparkering":"NEI","antall_avgiftsfrie_plasser":8,"antall_avgiftsbelagte_plasser":0,"plasser_reservert_handikappede":1,"antall_ladeplasser":0,"adresse":"Hegrevegen","parkeringstilbyder_navn":"RÆLINGEN KOMMUNE"},"geometry":{"type":"Point","coordinates":[11.06897,59.93222]}},{"type":"Feature","properties":{"navn":"Skjettentoppen","referanse":"Parkeringsregisteret","type":"PARKERINGSHUS","innfartsparkering":"NEI","antall_avgiftsfrie_plasser":0,"antall_avgiftsbelagte_plasser":47,"plasser_reservert_handikappede":3,"antall_ladeplasser":0,"adresse":"Skjettenveien 40C","parkeringstilbyder_navn":"ONEPARK AS AVD HOVEDKONTOR"},"geometry":{"type":"Point","coordinates":[11.0095,59.96229]}},{"type":"Feature","properties":{"navn":"LUX - uteområder","referanse":"Parkeringsregisteret","type":"AVGRENSET_OMRADE","innfartsparkering":"NEI","antall_avgiftsfrie_plasser":2,"antall_avgiftsbelagte_plasser":0,"plasser_reservert_handikappede":0,"antall_ladeplasser":0,"adresse":"Kjerulfs gate 2A","parkeringstilbyder_navn":"ONEPARK AS AVD HOVEDKONTOR"},"geometry":{"type":"Point","coordinates":[11.05309,59.95651]}},{"type":"Feature","properties":{"navn":"Messeveien","referanse":"Parkeringsregisteret","type":"AVGRENSET_OMRADE","innfartsparkering":"NEI","antall_avgiftsfrie_plasser":0,"antall_avgiftsbelagte_plasser":294,"plasser_reservert_handikappede":4,"antall_ladeplasser":0,"adresse":"Nesgata 19","parkeringstilbyder_navn":"AIMO PARK NORWAY AS"},"geometry":{"type":"Point","coordinates":[11.05896,59.9506]}},{"type":"Feature","properties":{"navn":"Kuskerudveien","referanse":"Parkeringsregisteret","type":"LANGS_KJOREBANE","innfartsparkering":"NEI","antall_avgiftsfrie_plasser":48,"antall_avgiftsbelagte_plasser":0,"plasser_reservert_handikappede":0,"antall_ladeplasser":0,"adresse":"Kuskerudveien ","parkeringstilbyder_navn":"LILLESTRØM PARKERING AS"},"geometry":{"type":"Point","coordinates":[11.24267,59.98731]}},{"type":"Feature","properties":{"navn":"Lillestrøm Stasjon","referanse":"Parkeringsregisteret","type":"LANGS_KJOREBANE","innfartsparkering":"NEI","antall_avgiftsfrie_plasser":27,"antall_avgiftsbelagte_plasser":0,"plasser_reservert_handikappede":0,"antall_ladeplasser":0,"adresse":"Lillestrøm Stasjon","parkeringstilbyder_navn":"LILLESTRØM PARKERING AS"},"geometry":{"type":"Point","coordinates":[11.04453,59.95317]}},{"type":"Feature","properties":{"navn":"Fjerdingby innfartsparkering","referanse":"Parkeringsregisteret","type":"AVGRENSET_OMRADE","innfartsparkering":"JA","antall_avgiftsfrie_plasser":32,"antall_avgiftsbelagte_plasser":0,"plasser_reservert_handikappede":1,"antall_ladeplasser":4,"adresse":"Hammarsvegen","parkeringstilbyder_navn":"RÆLINGEN KOMMUNE"},"geometry":{"type":"Point","coordinates":[11.08729,59.91897]}},{"type":"Feature","properties":{"navn":"Teatergata","referanse":"Parkeringsregisteret","type":"LANGS_KJOREBANE","innfartsparkering":"NEI","antall_avgiftsfrie_plasser":3,"antall_avgiftsbelagte_plasser":0,"plasser_reservert_handikappede":3,"antall_ladeplasser":0,"adresse":"Teatergata 14","parkeringstilbyder_navn":"LILLESTRØM PARKERING AS"},"geometry":{"type":"Point","coordinates":[11.04901,59.95702]}},{"type":"Feature","properties":{"navn":"1695","referanse":"Parkeringsregisteret","type":"AVGRENSET_OMRADE","innfartsparkering":"NEI","antall_avgiftsfrie_plasser":44,"antall_avgiftsbelagte_plasser":0,"plasser_reservert_handikappede":3,"antall_ladeplasser":0,"adresse":"Tverrveien 2","parkeringstilbyder_navn":"P-SERVICE AS"},"geometry":{"type":"Point","coordinates":[11.24574,59.98736]}},{"type":"Feature","properties":{"navn":"216","referanse":"Parkeringsregisteret","type":"AVGRENSET_OMRADE","innfartsparkering":"NEI","antall_avgiftsfrie_plasser":6,"antall_avgiftsbelagte_plasser":0,"plasser_reservert_handikappede":1,"antall_ladeplasser":0,"adresse":"Nedre Rælingsveg 259","parkeringstilbyder_navn":"P-SERVICE AS"},"geometry":{"type":"Point","coordinates":[11.06757,59.93294]}},{"type":"Feature","properties":{"navn":"Parkalleen ved Volla Skole ","referanse":"Parkeringsregisteret","type":"LANGS_KJOREBANE","innfartsparkering":"NEI","antall_avgiftsfrie_plasser":13,"antall_avgiftsbelagte_plasser":0,"plasser_reservert_handikappede":2,"antall_ladeplasser":0,"adresse":"Parkalleen 30","parkeringstilbyder_navn":"LILLESTRØM PARKERING AS"},"geometry":{"type":"Point","coordinates":[11.04054,59.95884]}},{"type":"Feature","properties":{"navn":"Parkalleen","referanse":"Parkeringsregisteret","type":"LANGS_KJOREBANE","innfartsparkering":"NEI","antall_avgiftsfrie_plasser":1,"antall_avgiftsbelagte_plasser":7,"plasser_reservert_handikappede":1,"antall_ladeplasser":0,"adresse":"Parkalleen 6","parkeringstilbyder_navn":"LILLESTRØM PARKERING AS"},"geometry":{"type":"Point","coordinates":[11.04748,59.95818]}},{"type":"Feature","properties":{"navn":"Storgata 26, Lillestrøm","referanse":"Parkeringsregisteret","type":"LANGS_KJOREBANE","innfartsparkering":"NEI","antall_avgiftsfrie_plasser":2,"antall_avgiftsbelagte_plasser":8,"plasser_reservert_handikappede":2,"antall_ladeplasser":0,"adresse":"Storgata 26","parkeringstilbyder_navn":"LILLESTRØM PARKERING AS"},"geometry":{"type":"Point","coordinates":[11.04833,59.9576]}},{"type":"Feature","properties":{"navn":"Teatergata, Lillestrøm","referanse":"Parkeringsregisteret","type":"LANGS_KJOREBANE","innfartsparkering":"NEI","antall_avgiftsfrie_plasser":3,"antall_avgiftsbelagte_plasser":0,"plasser_reservert_handikappede":3,"antall_ladeplasser":0,"adresse":"Teatergata 14","parkeringstilbyder_navn":"LILLESTRØM PARKERING AS"},"geometry":{"type":"Point","coordinates":[11.04901,59.95702]}},{"type":"Feature","properties":{"navn":"Voldgata 1- 23, Lillestrøm","referanse":"Parkeringsregisteret","type":"LANGS_KJOREBANE","innfartsparkering":"NEI","antall_avgiftsfrie_plasser":5,"antall_avgiftsbelagte_plasser":29,"plasser_reservert_handikappede":5,"antall_ladeplasser":0,"adresse":"Voldgata 13","parkeringstilbyder_navn":"LILLESTRØM PARKERING AS"},"geometry":{"type":"Point","coordinates":[11.04551,59.95535]}},{"type":"Feature","properties":{"navn":"Sørumsand Senter","referanse":"Parkeringsregisteret","type":"AVGRENSET_OMRADE","innfartsparkering":"NEI","antall_avgiftsfrie_plasser":0,"antall_avgiftsbelagte_plasser":63,"plasser_reservert_handikappede":3,"antall_ladeplasser":0,"adresse":"Fru Natvigs Vei 2","parkeringstilbyder_navn":"VESTPARK AS"},"geometry":{"type":"Point","coordinates":[11.24322,59.98697]}},{"type":"Feature","properties":{"navn":"Fjerdingby skole","referanse":"Parkeringsregisteret","type":"AVGRENSET_OMRADE","innfartsparkering":"NEI","antall_avgiftsfrie_plasser":25,"antall_avgiftsbelagte_plasser":8,"plasser_reservert_handikappede":3,"antall_ladeplasser":8,"adresse":"Bjørnholthagan 10","parkeringstilbyder_navn":"RÆLINGEN KOMMUNE"},"geometry":{"type":"Point","coordinates":[11.06371,59.92633]}},{"type":"Feature","properties":{"navn":"Strømsveien 125/127 AS","referanse":"Parkeringsregisteret","type":"AVGRENSET_OMRADE","innfartsparkering":"NEI","antall_avgiftsfrie_plasser":32,"antall_avgiftsbelagte_plasser":0,"plasser_reservert_handikappede":2,"antall_ladeplasser":0,"adresse":"Skjettenveien 2E","parkeringstilbyder_navn":"VESTPARK AS"},"geometry":{"type":"Point","coordinates":[11.01711,59.95754]}},{"type":"Feature","properties":{"navn":"Landstadsgate P-hus","referanse":"Parkeringsregisteret","type":"PARKERINGSHUS","innfartsparkering":"NEI","antall_avgiftsfrie_plasser":2,"antall_avgiftsbelagte_plasser":40,"plasser_reservert_handikappede":1,"antall_ladeplasser":0,"adresse":"Landstads gate 6","parkeringstilbyder_navn":"ONEPARK AS AVD HOVEDKONTOR"},"geometry":{"type":"Point","coordinates":[11.0543,59.9565]}},{"type":"Feature","properties":{"navn":"Smestad skole","referanse":"Parkeringsregisteret","type":"AVGRENSET_OMRADE","innfartsparkering":"NEI","antall_avgiftsfrie_plasser":68,"antall_avgiftsbelagte_plasser":4,"plasser_reservert_handikappede":2,"antall_ladeplasser":8,"adresse":"Smestadbråtan 1","parkeringstilbyder_navn":"RÆLINGEN KOMMUNE"},"geometry":{"type":"Point","coordinates":[11.09149,59.9076]}},{"type":"Feature","properties":{"navn":"Brogata, Lillestrøm","referanse":"Parkeringsregisteret","type":"LANGS_KJOREBANE","innfartsparkering":"NEI","antall_avgiftsfrie_plasser":2,"antall_avgiftsbelagte_plasser":6,"plasser_reservert_handikappede":2,"antall_ladeplasser":0,"adresse":"Brogata 10A","parkeringstilbyder_navn":"LILLESTRØM PARKERING AS"},"geometry":{"type":"Point","coordinates":[11.04269,59.95563]}},{"type":"Feature","properties":{"navn":"Fetsund Lenser","referanse":"NVDB","eier":10384},"geometry":{"type":"Point","coordinates":[11.15502,59.92256]}},{"type":"Feature","properties":{"referanse":"NVDB","eier":10384},"geometry":{"type":"Point","coordinates":[11.2422,59.98632]}},{"type":"Feature","properties":{"navn":"Fetsund - Riddersand","referanse":"NVDB","type":"Avskjermet plass","bruksområde":3159,"innfartsparkering":"Ja","eier":10718},"geometry":{"type":"Point","coordinates":[11.1699,59.9224]}},{"type":"Feature","properties":{"navn":"P-plass_Tuen","referanse":"NVDB","type":"Avskjermet plass","innfartsparkering":"Ja","plasser_reservert_handikappede":0,"eier":10256},"geometry":{"type":"Point","coordinates":[11.11149,59.94579]}},{"type":"Feature","properties":{"navn":"P-plass_Tuen","referanse":"NVDB","type":"Avskjermet plass","innfartsparkering":"Ja","plasser_reservert_handikappede":0,"eier":10256},"geometry":{"type":"Point","coordinates":[11.11142,59.94576]}},{"type":"Feature","properties":{"referanse":"FKB Veg"},"geometry":{"type":"Point","coordinates":[11.17179,59.91579]}},{"type":"Feature","properties":{"referanse":"FKB Veg"},"geometry":{"type":"Point","coordinates":[11.09354,59.90395]}},{"type":"Feature","properties":{"referanse":"FKB Veg"},"geometry":{"type":"Point","coordinates":[11.06574,59.92675]}},{"type":"Feature","properties":{"referanse":"FKB Veg"},"geometry":{"type":"Point","coordinates":[11.16817,59.92179]}},{"type":"Feature","properties":{"referanse":"FKB Veg"},"geometry":{"type":"Point","coordinates":[11.13957,59.91733]}},{"type":"Feature","properties":{"referanse":"FKB Veg"},"geometry":{"type":"Point","coordinates":[11.16024,59.92603]}},{"type":"Feature","properties":{"referanse":"FKB Veg"},"geometry":{"type":"Point","coordinates":[11.23364,59.98526]}},{"type":"Feature","properties":{"referanse":"FKB Veg"},"geometry":{"type":"Point","coordinates":[11.19695,59.79246]}},{"type":"Feature","properties":{"referanse":"FKB Veg"},"geometry":{"type":"Point","coordinates":[11.15141,59.63787]}},{"type":"Feature","properties":{"referanse":"FKB Veg"},"geometry":{"type":"Point","coordinates":[11.04222,59.95384]}},{"type":"Feature","properties":{"referanse":"FKB Veg"},"geometry":{"type":"Point","coordinates":[11.21764,59.8615]}},{"type":"Feature","properties":{"referanse":"FKB Veg"},"geometry":{"type":"Point","coordinates":[11.22523,59.86197]}},{"type":"Feature","properties":{"referanse":"FKB Veg"},"geometry":{"type":"Point","coordinates":[11.21784,59.86204]}},{"type":"Feature","properties":{"referanse":"FKB Veg"},"geometry":{"type":"Point","coordinates":[11.22681,59.86412]}},{"type":"Feature","properties":{"referanse":"FKB Veg"},"geometry":{"type":"Point","coordinates":[11.2515,59.98761]}},{"type":"Feature","properties":{"referanse":"FKB Veg"},"geometry":{"type":"Point","coordinates":[11.14178,59.92338]}},{"type":"Feature","properties":{"referanse":"FKB Veg"},"geometry":{"type":"Point","coordinates":[11.26314,59.99065]}},{"type":"Feature","properties":{"referanse":"FKB Veg"},"geometry":{"type":"Point","coordinates":[11.23357,59.98487]}},{"type":"Feature","properties":{"referanse":"FKB Veg"},"geometry":{"type":"Point","coordinates":[11.23383,59.98522]}},{"type":"Feature","properties":{"referanse":"FKB Veg"},"geometry":{"type":"Point","coordinates":[11.23345,59.98502]}},{"type":"Feature","properties":{"referanse":"FKB Veg"},"geometry":{"type":"Point","coordinates":[11.23418,59.98557]}},{"type":"Feature","properties":{"referanse":"FKB Veg"},"geometry":{"type":"Point","coordinates":[11.23395,59.98558]}},{"type":"Feature","properties":{"referanse":"FKB Veg"},"geometry":{"type":"Point","coordinates":[11.23449,59.98581]}},{"type":"Feature","properties":{"referanse":"FKB Veg"},"geometry":{"type":"Point","coordinates":[11.23596,59.98706]}},{"type":"Feature","properties":{"referanse":"FKB Veg"},"geometry":{"type":"Point","coordinates":[11.16728,59.92186]}},{"type":"Feature","properties":{"referanse":"FKB Veg"},"geometry":{"type":"Point","coordinates":[11.17505,59.92841]}},{"type":"Feature","properties":{"referanse":"FKB Veg"},"geometry":{"type":"Point","coordinates":[11.24396,59.83015]}},{"type":"Feature","properties":{"referanse":"FKB Veg"},"geometry":{"type":"Point","coordinates":[11.13165,59.94169]}},{"type":"Feature","properties":{"referanse":"FKB Veg"},"geometry":{"type":"Point","coordinates":[11.2332,59.9845]}},{"type":"Feature","properties":{"referanse":"FKB Veg"},"geometry":{"type":"Point","coordinates":[11.13153,59.94219]}},{"type":"Feature","properties":{"referanse":"FKB Veg"},"geometry":{"type":"Point","coordinates":[11.23415,59.98573]}},{"type":"Feature","properties":{"referanse":"FKB Veg"},"geometry":{"type":"Point","coordinates":[11.23459,59.98605]}},{"type":"Feature","properties":{"referanse":"FKB Veg"},"geometry":{"type":"Point","coordinates":[11.23438,59.9859]}},{"type":"Feature","properties":{"referanse":"FKB Veg"},"geometry":{"type":"Point","coordinates":[11.22956,59.98703]}},{"type":"Feature","properties":{"referanse":"FKB Veg"},"geometry":{"type":"Point","coordinates":[11.28429,59.98659]}},{"type":"Feature","properties":{"referanse":"FKB Veg"},"geometry":{"type":"Point","coordinates":[11.26384,59.99052]}},{"type":"Feature","properties":{"referanse":"FKB Veg"},"geometry":{"type":"Point","coordinates":[11.0507,59.95754]}},{"type":"Feature","properties":{"referanse":"FKB Veg"},"geometry":{"type":"Point","coordinates":[11.25177,59.80892]}},{"type":"Feature","properties":{"referanse":"FKB Veg"},"geometry":{"type":"Point","coordinates":[11.24944,59.81055]}},{"type":"Feature","properties":{"referanse":"FKB Veg"},"geometry":{"type":"Point","coordinates":[11.14969,59.75425]}},{"type":"Feature","properties":{"referanse":"FKB Veg"},"geometry":{"type":"Point","coordinates":[11.19402,59.79655]}},{"type":"Feature","properties":{"referanse":"FKB Veg"},"geometry":{"type":"Point","coordinates":[11.18191,59.78583]}},{"type":"Feature","properties":{"referanse":"FKB Veg"},"geometry":{"type":"Point","coordinates":[11.07456,59.92154]}},{"type":"Feature","properties":{"referanse":"FKB Veg"},"geometry":{"type":"Point","coordinates":[11.08085,59.92064]}},{"type":"Feature","properties":{"referanse":"FKB Veg"},"geometry":{"type":"Point","coordinates":[11.08549,59.87526]}},{"type":"Feature","properties":{"referanse":"FKB Veg"},"geometry":{"type":"Point","coordinates":[11.07024,59.93282]}},{"type":"Feature","properties":{"referanse":"FKB Veg"},"geometry":{"type":"Point","coordinates":[11.07014,59.92276]}},{"type":"Feature","properties":{"referanse":"FKB Veg"},"geometry":{"type":"Point","coordinates":[11.0623,59.93239]}},{"type":"Feature","properties":{"referanse":"FKB Veg"},"geometry":{"type":"Point","coordinates":[11.09318,59.86485]}},{"type":"Feature","properties":{"referanse":"FKB Veg"},"geometry":{"type":"Point","coordinates":[11.09494,59.86255]}},{"type":"Feature","properties":{"referanse":"FKB Veg"},"geometry":{"type":"Point","coordinates":[11.05521,59.936]}},{"type":"Feature","properties":{"referanse":"FKB Veg"},"geometry":{"type":"Point","coordinates":[11.06892,59.93193]}},{"type":"Feature","properties":{"referanse":"FKB Veg"},"geometry":{"type":"Point","coordinates":[11.06433,59.92771]}},{"type":"Feature","properties":{"referanse":"FKB Veg"},"geometry":{"type":"Point","coordinates":[11.04449,59.95398]}}]}