{"type":"FeatureCollection","features":[{"type":"Feature","properties":{"name":"Sagdalen stasjon","stoptypename":"Train","zone_name":"2Ø","fade":1.0},"geometry":{"type":"Point","coordinates":[11.01568,59.95626]}},{"type":"Feature","properties":{"name":"Fetsund stasjon","stoptypename":"Train","fade":1.0},"geometry":{"type":"Point","coordinates":[11.16292,59.92714]}},{"type":"Feature","properties":{"name":"Nerdrum stasjon","stoptypename":"Train","fade":1.0},"geometry":{"type":"Point","coordinates":[11.14104,59.92293]}},{"type":"Feature","properties":{"name":"Lillestrøm stasjon","stoptypename":"Train","zone_name":"2Ø","fade":1.0},"geometry":{"type":"Point","coordinates":[11.04468,59.95322]}},{"type":"Feature","properties":{"name":"Blaker stasjon","stoptypename":"Train","fade":0.55},"geometry":{"type":"Point","coordinates":[11.30155,60.00495]}},{"type":"Feature","properties":{"name":"Bingsfoss stasjon","stoptypename":"Train","fade":1.0},"geometry":{"type":"Point","coordinates":[11.27194,59.99047]}},{"type":"Feature","properties":{"name":"Fossum stasjon","stoptypename":"Train","fade":1.0},"geometry":{"type":"Point","coordinates":[11.28245,59.98744]}},{"type":"Feature","properties":{"name":"Svingen stasjon","stoptypename":"Train","fade":1.0},"geometry":{"type":"Point","coordinates":[11.17761,59.92907]}},{"type":"Feature","properties":{"name":"Sørumsand Tertitten stasjon","stoptypename":"Train","fade":1.0},"geometry":{"type":"Point","coordinates":[11.2442,59.98636]}},{"type":"Feature","properties":{"name":"Sørumsand stasjon","stoptypename":"Train","fade":1.0},"geometry":{"type":"Point","coordinates":[11.24018,59.98588]}},{"type":"Feature","properties":{"name":"Tuen stasjon","stoptypename":"Train","fade":1.0},"geometry":{"type":"Point","coordinates":[11.10281,59.94293]}},{"type":"Feature","properties":{"name":"Strømmen stasjon","stoptypename":"Train","zone_name":"2Ø","fade":1.0},"geometry":{"type":"Point","coordinates":[11.00161,59.94952]}}]}