{"type":"FeatureCollection","features":[{"type":"Feature","properties":{"fade":1.0},"geometry":{"type":"Point","coordinates":[11.03788,59.92985]}},{"type":"Feature","properties":{"fade":1.0},"geometry":{"type":"Point","coordinates":[11.05152,59.94647]}},{"type":"Feature","properties":{"fade":1.0},"geometry":{"type":"Point","coordinates":[11.03743,59.92976]}},{"type":"Feature","properties":{"fade":1.0},"geometry":{"type":"Point","coordinates":[11.05851,59.938]}},{"type":"Feature","properties":{"fade":1.0},"geometry":{"type":"Point","coordinates":[11.0399,59.9297]}},{"type":"Feature","properties":{"fade":1.0},"geometry":{"type":"Point","coordinates":[11.04051,59.92983]}}]}